"","LEA2","Name","Address","x1","district_name","district_enrollment","district_percent_gifted_and_talented","district_percent_special_education","district_percent_homeless","district_percent_lep","district_percent_frl","district_percent_white","district_percent_hispanic","district_percent_black","district_percent_other_races","district_overall_percent_minority","region","is_charter","district_lea","LEA","lon","lat"
"1",6040700,"ACADEMICS PLUS PUBLIC CHARTER SCHOOLS","900 Edgewood Dr
Maumelle
AR - 72113",1,"ACADEMICS PLUS PUBLIC CHARTER SCHOOLS",1408,0,0.0724431818181818,0.0106534090909091,0.0191761363636364,0.280739161336176,0.683948863636364,0.0617897727272727,0.191761363636364,0.0625,0.316051136363636,3,1,6040700,"6040700",-92.4050481,34.8653229
"2",1701000,"ALMA SCHOOL DISTRICT","916 Hwy 64 East
Alma
AR - 72921",2,"ALMA SCHOOL DISTRICT",3244,0.101789019123998,0.130783466995682,0.0293028994447872,0.00863664404688464,0.481196054254007,0.86035758323058,0.0428483353884094,0.0138717632552404,0.0829223181257707,0.13964241676942,1,0,1701000,"1701000",-94.2090306,35.4878649
"3",501000,"ALPENA SCHOOL DISTRICT","300 S Denver St
Alpena
AR - 72611",3,"ALPENA SCHOOL DISTRICT",526,0.0836501901140684,0.129277566539924,0.155893536121673,0.00570342205323194,0.673003802281369,0.944866920152091,0.0380228136882129,0.00760456273764259,0.00950570342205323,0.0551330798479087,1,0,501000,"501000",-93.2950719,36.2916191
"4",6091000,"ARK. SCHOOL FOR THE BLIND","2600 W Markham St.
Little Rock
AR - 72203",4,"ARK. SCHOOL FOR THE BLIND",88,0.188235294117647,1.03529411764706,0,0.0117647058823529,0.454545454545455,0.522727272727273,0.0795454545454545,0.318181818181818,0.0795454545454545,0.477272727272727,3,0,6091000,"6091000",-92.3007761,34.7528216
"5",6092000,"ARK. SCHOOL FOR THE DEAF","2400 West Markham St
Little Rock
AR - 72203-3811",5,"ARK. SCHOOL FOR THE DEAF",103,0,0.932038834951456,0,0.00970873786407767,0.682926829268293,0.514563106796116,0.135922330097087,0.262135922330097,0.087378640776699,0.485436893203884,3,0,6092000,"6092000",-92.2987065,34.7507045
"6",1002000,"ARKADELPHIA SCHOOL DISTRICT","235 North 11Th
Arkadelphia
AR - 71923",6,"ARKADELPHIA SCHOOL DISTRICT",1745,0.120343839541547,0.139255014326648,0,0.00859598853868195,0.565042979942693,0.502005730659026,0.067621776504298,0.382234957020057,0.0481375358166189,0.497994269340974,4,0,1002000,"1002000",-93.0605154,34.1236378
"7",440700,"ARKANSAS ARTS ACADEMY","8 Halsted Circle, Ste #5
Rogers
AR - 72758",7,"ARKANSAS ARTS ACADEMY",1025,0,0.101463414634146,0.0292682926829268,0.0575609756097561,0.269268292682927,0.743414634146341,0.139512195121951,0.0126829268292683,0.104390243902439,0.256585365853659,1,1,440700,"440700",NA,NA
"8",444700,"ARKANSAS CONNECTIONS ACADEMY","609 S W 8Th Street
Bentonville
AR - 72712",8,"ARKANSAS CONNECTIONS ACADEMY",1236,0.052588996763754,0.121359223300971,0.00970873786407767,0.00809061488673139,0.620550161812298,0.738673139158576,0.0752427184466019,0.104368932038835,0.0817152103559871,0.261326860841424,1,1,444700,"444700",-94.2159565,36.3628747
"9",6043700,"ARKANSAS VIRTUAL ACADEMY","10802 Executive Center Dr
Little Rock
AR - 72211",9,"ARKANSAS VIRTUAL ACADEMY",2361,0,0.146548072850487,0.00338839474798814,0.0173655230834392,0.669631512071156,0.784836933502753,0.0643795002117747,0.1143583227446,0.0364252435408725,0.215163066497247,3,1,6043700,"6043700",-92.3952049,34.7398345
"10",4701000,"ARMOREL SCHOOL DISTRICT","7 South Main St
Armorel
AR - 72310",10,"ARMOREL SCHOOL DISTRICT",412,0.104368932038835,0.140776699029126,0.0121359223300971,0.029126213592233,0.449029126213592,0.861650485436893,0.0339805825242718,0.0728155339805825,0.0315533980582524,0.138349514563107,2,0,4701000,"4701000",-89.79941,35.9171821
"11",4101000,"ASHDOWN SCHOOL DISTRICT","511 N. Second
Ashdown
AR - 71822",11,"ASHDOWN SCHOOL DISTRICT",1395,0.0924731182795699,0.124014336917563,0.0200716845878136,0.0114695340501792,0.634408602150538,0.623655913978495,0.0422939068100358,0.260215053763441,0.0738351254480287,0.376344086021505,4,0,4101000,"4101000",-94.1342445,33.6741003
"12",5801000,"ATKINS SCHOOL DISTRICT","302 Avenue Two Nw
Atkins
AR - 72823",12,"ATKINS SCHOOL DISTRICT",952,0.101890756302521,0.178571428571429,0.0567226890756303,0.0136554621848739,0.644957983193277,0.925420168067227,0.0252100840336134,0.0178571428571429,0.0315126050420168,0.0745798319327731,1,0,5801000,"5801000",-92.9391932,35.244066
"13",7401000,"AUGUSTA SCHOOL DISTRICT","#10 Red Devil Dr
Augusta
AR - 72006",13,"AUGUSTA SCHOOL DISTRICT",369,0.111111111111111,0.119241192411924,0.0921409214092141,0,0.86449864498645,0.409214092140921,0.010840108401084,0.550135501355014,0.029810298102981,0.590785907859079,2,0,7401000,"7401000",NA,NA
"14",7301000,"BALD KNOB SCHOOL DISTRICT","103 West Park Street
Bald Knob
AR - 72010",14,"BALD KNOB SCHOOL DISTRICT",1190,0.117647058823529,0.138655462184874,0.0176470588235294,0.0117647058823529,0.589075630252101,0.857142857142857,0.073109243697479,0.0235294117647059,0.046218487394958,0.142857142857143,2,0,7301000,"7301000",-91.5713682,35.3127319
"15",5401000,"BARTON-LEXA SCHOOL DISTRICT","9546 Hwy 85 South
Barton
AR - 72312",15,"BARTON-LEXA SCHOOL DISTRICT",725,0.113103448275862,0.121379310344828,0.0137931034482759,0,0.855172413793103,0.615172413793104,0.0262068965517241,0.339310344827586,0.0193103448275862,0.384827586206897,5,0,5401000,"5401000",-90.7674801,34.5499707
"16",3201000,"BATESVILLE SCHOOL DISTRICT","955 Water St
Batesville
AR - 72501",16,"BATESVILLE SCHOOL DISTRICT",3065,0.0685154975530179,0.130831973898858,0.0208809135399674,0.153344208809135,0.533289817232376,0.682544861337684,0.219902120717781,0.064926590538336,0.032626427406199,0.317455138662316,2,0,3201000,"3201000",-91.6467127,35.776078
"17",6301000,"BAUXITE SCHOOL DISTRICT","800 School Street
Bauxite
AR - 72011",17,"BAUXITE SCHOOL DISTRICT",1698,0.0659599528857479,0.101295641931684,0.00647820965842167,0.0111896348645465,0.403415783274441,0.908127208480565,0.0465253239104829,0.0253239104829211,0.0200235571260306,0.0918727915194346,3,0,6301000,"6301000",-92.5107472,34.553545
"18",1601000,"BAY SCHOOL DISTRICT","700 School St
Bay
AR - 72411-39",18,"BAY SCHOOL DISTRICT",622,0.0755627009646302,0.184887459807074,0.0707395498392283,0.00160771704180064,0.65112540192926,0.92443729903537,0.0144694533762058,0.0385852090032154,0.022508038585209,0.0755627009646302,2,0,1601000,"1601000",-90.5667253,35.7473782
"19",5201000,"BEARDEN SCHOOL DISTRICT","100 Oak Ave
Bearden
AR - 71720",19,"BEARDEN SCHOOL DISTRICT",483,0.169772256728778,0.105590062111801,0.0144927536231884,0,0.710144927536232,0.540372670807453,0.041407867494824,0.370600414078675,0.0476190476190476,0.459627329192547,4,0,5201000,"5201000",-92.6206738,33.7281636
"20",7302000,"BEEBE SCHOOL DISTRICT","1201 W. Center St.
Beebe
AR - 72012",20,"BEEBE SCHOOL DISTRICT",3265,0.0704872816426601,0.149555623659209,0.00122586576769844,0.0171621207477781,0.493415007656968,0.868606431852986,0.0548238897396631,0.0404287901990812,0.0361408882082695,0.131393568147014,2,0,7302000,"7302000",-91.8973745,35.0675618
"21",6302000,"BENTON SCHOOL DISTRICT","207 W. Conway
Benton
AR - 72015",21,"BENTON SCHOOL DISTRICT",5547,0.110890732059142,0.101514605120808,0.00342589253516048,0.0405697800216372,0.403100775193798,0.778078240490355,0.0780602127276005,0.097530196502614,0.0463313502794303,0.221921759509645,3,0,6302000,"6302000",-92.5884287,34.5658661
"22",401000,"BENTONVILLE SCHOOL DISTRICT","500 Tiger Blvd
Bentonville
AR - 72712",22,"BENTONVILLE SCHOOL DISTRICT",17225,0.0592334494773519,0.103658536585366,0.014924506387921,0.044541231126597,0.231117561683599,0.730914368650218,0.115413642960813,0.0303628447024673,0.123309143686502,0.269085631349782,1,0,401000,"401000",-94.2146754,36.3864015
"23",502000,"BERGMAN SCHOOL DISTRICT","P.O. Box 1
Bergman
AR - 72615",23,"BERGMAN SCHOOL DISTRICT",1085,0.0552995391705069,0.108755760368664,0.00368663594470046,0.00276497695852535,0.606451612903226,0.951152073732719,0.0276497695852535,0.00552995391705069,0.015668202764977,0.0488479262672811,1,0,502000,"502000",-93.011942,36.3167457
"24",801000,"BERRYVILLE SCHOOL DISTRICT","902 West Trimble
Berryville
AR - 72616",24,"BERRYVILLE SCHOOL DISTRICT",1889,0.0947591318157755,0.164637374272102,0.123345685547909,0.175224986765484,0.705134992059291,0.662255161461091,0.274748544203282,0.00370566437268396,0.0592906299629434,0.337744838538909,1,0,801000,"801000",-93.5840873,36.3723701
"25",3001000,"BISMARCK SCHOOL DISTRICT","11636 Hwy 84
Bismarck
AR - 71929-8170",25,"BISMARCK SCHOOL DISTRICT",996,0.106425702811245,0.142570281124498,0.0662650602409639,0.0240963855421687,0.640562248995984,0.889558232931727,0.071285140562249,0.0160642570281124,0.0230923694779116,0.110441767068273,3,0,3001000,"3001000",-93.1763762,34.3153119
"26",2901000,"BLEVINS SCHOOL DISTRICT","5954 Hwy 29N
Blevins
AR - 71825",26,"BLEVINS SCHOOL DISTRICT",492,0.0995934959349594,0.132113821138211,0.0447154471544715,0.0630081300813008,0.819105691056911,0.658536585365854,0.150406504065041,0.154471544715447,0.0365853658536585,0.341463414634146,4,0,2901000,"2901000",-93.5679062,33.8801996
"27",4702000,"BLYTHEVILLE SCHOOL DISTRICT","405 West Park
Blytheville
AR - 72316",27,"BLYTHEVILLE SCHOOL DISTRICT",2000,0.0795397698849425,0.126063031515758,0.15807903951976,0.0295147573786893,0.7955,0.1355,0.0385,0.8185,0.0075,0.8645,2,0,4702000,"4702000",-89.9068219,35.9323808
"28",4201000,"BOONEVILLE SCHOOL DISTRICT","381 W. Seventh St.
Booneville
AR - 72927",28,"BOONEVILLE SCHOOL DISTRICT",1183,0.145393068469992,0.134404057480981,0.125105663567202,0.00422654268808115,0.718512256973795,0.881656804733728,0.0532544378698225,0.00422654268808115,0.0608622147083686,0.118343195266272,1,0,4201000,"4201000",-93.9262122,35.1448831
"29",7303000,"BRADFORD SCHOOL DISTRICT","504 West Main St
Bradford
AR - 72020",29,"BRADFORD SCHOOL DISTRICT",433,0.150115473441109,0.187066974595843,0.203233256351039,0,0.785219399538106,0.958429561200924,0.0161662817551963,0.0254041570438799,0,0.0415704387990762,2,0,7303000,"7303000",-91.4608402,35.4249444
"30",4801000,"BRINKLEY SCHOOL DISTRICT","200 Tiger Drive
Brinkley
AR - 72021",30,"BRINKLEY SCHOOL DISTRICT",462,0.0822510822510823,0.138528138528139,0.132034632034632,0,0.787878787878788,0.29004329004329,0.0108225108225108,0.69047619047619,0.00865800865800866,0.70995670995671,5,0,4801000,"4801000",-91.1953157,34.8771991
"31",1603000,"BROOKLAND SCHOOL DISTRICT","200 W. School St.
Brookland
AR - 72417",31,"BROOKLAND SCHOOL DISTRICT",2557,0.0645287446226046,0.137270238560813,0.0175987485334376,0.013687915526007,0.312866640594447,0.91435275713727,0.0434102463824795,0.0219006648416113,0.020336331638639,0.0856472428627298,2,0,1603000,"1603000",-90.5824333,35.9076292
"32",6303000,"BRYANT SCHOOL DISTRICT","200 N.W. Fourth St.
Bryant
AR - 72022",32,"BRYANT SCHOOL DISTRICT",9136,0.109894921190893,0.123358143607706,0.00426882661996497,0.0688485113835376,0.382114711033275,0.658384413309983,0.134413309982487,0.169220665499124,0.0379816112084063,0.341615586690018,3,0,6303000,"6303000",-92.490216,34.5980991
"33",1605000,"BUFFALO IS. CENTRAL SCH. DIST.","Hwy 18 E
Monette
AR - 72447",33,"BUFFALO IS. CENTRAL SCH. DIST.",724,0.121546961325967,0.140883977900552,0.0138121546961326,0.106353591160221,0.549723756906077,0.799723756906077,0.18646408839779,0.00414364640883978,0.00966850828729282,0.200276243093923,2,0,1605000,"1605000",-90.3439414,35.8984991
"34",4304000,"CABOT SCHOOL DISTRICT","602 No Lincoln
Cabot
AR - 72023",34,"CABOT SCHOOL DISTRICT",10292,0.112320248736883,0.134181888845705,0.00262339681305869,0.0190439176059075,0.3941896618733,0.861348620287602,0.0581033812670035,0.0248736883015935,0.055674310143801,0.138651379712398,3,0,4304000,"4304000",-92.0076596,34.9753737
"35",4901000,"CADDO HILLS SCHOOL DISTRICT","2268 Hwy 8 East
Norman
AR - 71960",35,"CADDO HILLS SCHOOL DISTRICT",557,0.132854578096948,0.125673249551167,0.0807899461400359,0.0125673249551167,0.789946140035907,0.800718132854578,0.168761220825853,0.00179533213644524,0.0287253141831239,0.199281867145422,4,0,4901000,"4901000",-93.6312389,34.4198507
"36",3301000,"CALICO ROCK SCHOOL DISTRICT","301 College St
Calico Rock
AR - 72519",36,"CALICO ROCK SCHOOL DISTRICT",367,0.130790190735695,0.122615803814714,0.0408719346049046,0.00817438692098093,0.700272479564033,0.964577656675749,0.0272479564032698,0,0.00817438692098093,0.0354223433242507,2,0,3301000,"3301000",-92.1351272,36.1175139
"37",5204000,"CAMDEN FAIRVIEW SCHOOL DISTRICT","625 Clifton Street
Camden
AR - 71701",37,"CAMDEN FAIRVIEW SCHOOL DISTRICT",2369,0.0578303081468974,0.119037568594344,0.0194174757281553,0.0236386661038413,0.756015196285353,0.307302659349937,0.0299704516673702,0.611228366399325,0.0514985225833685,0.692697340650063,4,0,5204000,"5204000",-92.8387963,33.587062
"38",6056700,"CAPITAL CITY LIGHTHOUSE ACADEMY","401 Main St
North Little Rock
AR - 72114",38,"CAPITAL CITY LIGHTHOUSE ACADEMY",213,0.0328638497652582,0.0657276995305164,0.0140845070422535,0.0610328638497653,0.826291079812207,0.0328638497652582,0.0657276995305164,0.882629107981221,0.0187793427230047,0.967136150234742,3,1,6056700,"6056700",-92.2680512,34.75724
"39",4303000,"CARLISLE SCHOOL DISTRICT","520 Center
Carlisle
AR - 72024",39,"CARLISLE SCHOOL DISTRICT",634,0.121451104100946,0.116719242902208,0.0725552050473186,0.0157728706624606,0.607255520504732,0.832807570977918,0.0457413249211356,0.102523659305994,0.0189274447949527,0.167192429022082,3,0,4303000,"4303000",-91.7328487,34.7795147
"40",6802000,"CAVE CITY SCHOOL DISTRICT","711 North Main
Cave City
AR - 72521",40,"CAVE CITY SCHOOL DISTRICT",1203,0.096586178184846,0.152373022481266,0.0199833472106578,0.0141548709408826,0.767248545303408,0.927680798004987,0.0457190357439734,0.0133000831255195,0.0133000831255195,0.0723192019950125,2,0,6802000,"6802000",-91.5489769,35.9520241
"41",3212000,"CEDAR RIDGE SCHOOL DISTRICT","1502 N Hill Street
Newark
AR - 72562",41,"CEDAR RIDGE SCHOOL DISTRICT",733,0.154371584699454,0.16120218579235,0.0341530054644809,0.0136612021857923,0.718963165075034,0.935879945429741,0.0463847203274216,0.00409276944065484,0.0136425648021828,0.0641200545702592,2,0,3212000,"3212000",-91.4463031,35.7194834
"42",1702000,"CEDARVILLE SCHOOL DISTRICT","9500 Pirates Point
Cedarville
AR - 72932",42,"CEDARVILLE SCHOOL DISTRICT",745,0.119463087248322,0.195973154362416,0.0389261744966443,0,0.723489932885906,0.825503355704698,0.0429530201342282,0,0.131543624161074,0.174496644295302,1,0,1702000,"1702000",-94.3668768,35.5721123
"43",5502000,"CENTERPOINT SCHOOL DISTRICT","755 Hwy 8 East
Amity
AR - 71921",43,"CENTERPOINT SCHOOL DISTRICT",964,0.0674273858921162,0.143153526970954,0.0425311203319502,0.12551867219917,0.70954356846473,0.770746887966805,0.201244813278008,0.00103734439834025,0.0269709543568465,0.229253112033195,4,0,5502000,"5502000",-93.5084123,34.2865323
"44",2402000,"CHARLESTON SCHOOL DISTRICT","125 West Main St
Charleston
AR - 72933",44,"CHARLESTON SCHOOL DISTRICT",902,0.0776053215077605,0.119733924611973,0.00997782705099778,0,0.476718403547672,0.894678492239468,0.0388026607538803,0.00997782705099778,0.0565410199556541,0.105321507760532,1,0,2402000,"2402000",NA,NA
"45",4802000,"CLARENDON SCHOOL DISTRICT","316 N 6Th Street
Clarendon
AR - 72029",45,"CLARENDON SCHOOL DISTRICT",456,0.118421052631579,0.182017543859649,0.0526315789473684,0.0504385964912281,0.923245614035088,0.333333333333333,0.0921052631578947,0.508771929824561,0.0657894736842105,0.666666666666667,5,0,4802000,"4802000",-91.3075179,34.6954004
"46",3601000,"CLARKSVILLE SCHOOL DISTRICT","1701 Clark Road
Clarksville
AR - 72830",46,"CLARKSVILLE SCHOOL DISTRICT",2530,0.0383399209486166,0.138735177865613,0.0363636363636364,0.25098814229249,0.712648221343874,0.508695652173913,0.356916996047431,0.01699604743083,0.117391304347826,0.491304347826087,1,0,3601000,"3601000",-93.4830554,35.4607219
"47",1305000,"CLEVELAND COUNTY SCHOOL DISTRICT","700 Main St
Rison
AR - 71665",47,"CLEVELAND COUNTY SCHOOL DISTRICT",832,0.125,0.138221153846154,0.0348557692307692,0.015625,0.581730769230769,0.683894230769231,0.0300480769230769,0.270432692307692,0.015625,0.316105769230769,5,0,1305000,"1305000",-92.1877462,33.9552515
"48",7102000,"CLINTON SCHOOL DISTRICT","683 Poplar St
Clinton
AR - 72031",48,"CLINTON SCHOOL DISTRICT",1255,0.106060606060606,0.161881977671451,0.14274322169059,0.0279106858054226,0.69800796812749,0.906772908366534,0.0661354581673307,0.00318725099601594,0.0239043824701195,0.0932270916334661,1,0,7102000,"7102000",-92.462161,35.5878815
"49",1201000,"CONCORD SCHOOL DISTRICT","P.O. Box 10
Concord
AR - 72523",49,"CONCORD SCHOOL DISTRICT",455,0.0703296703296703,0.162637362637363,0.0703296703296703,0.0043956043956044,0.635164835164835,0.962637362637363,0.021978021978022,0.0021978021978022,0.0131868131868132,0.0373626373626374,2,0,1201000,"1201000",-91.8476443,35.6636886
"50",2301000,"CONWAY SCHOOL DISTRICT","2220 Prince Street
Conway
AR - 72034",50,"CONWAY SCHOOL DISTRICT",9975,0.0891228070175439,0.124210526315789,0.0107268170426065,0.0512280701754386,0.49453634085213,0.557092731829574,0.103057644110276,0.283609022556391,0.0562406015037594,0.442907268170426,3,0,2301000,"2301000",-92.4575955,35.0925981
"51",1101000,"CORNING SCHOOL DISTRICT","P.O. Box 479
Corning
AR - 72422",51,"CORNING SCHOOL DISTRICT",844,0.0819477434679335,0.140142517814727,0.00356294536817102,0,0.729857819905213,0.96563981042654,0.0260663507109005,0.00829383886255924,0,0.0343601895734597,2,0,1101000,"1101000",-90.5798336,36.4078388
"52",5707000,"COSSATOT RIVER SCHOOL DISTRICT","130 School Dr
Wickes
AR - 71973",52,"COSSATOT RIVER SCHOOL DISTRICT",986,0.09026369168357,0.13184584178499,0.00304259634888438,0.176470588235294,0.762677484787018,0.644016227180527,0.283975659229209,0.0050709939148073,0.0669371196754564,0.355983772819473,4,0,5707000,"5707000",-94.3325815,34.2981913
"53",302000,"COTTER SCHOOL DISTRICT","P.O. Box 70
Cotter
AR - 72626",53,"COTTER SCHOOL DISTRICT",748,0.0574866310160428,0.144385026737968,0.0655080213903743,0.0053475935828877,0.699197860962567,0.957219251336898,0.0240641711229947,0.00267379679144385,0.0160427807486631,0.0427807486631016,1,0,302000,"302000",-92.5354402,36.2711798
"54",2403000,"COUNTY LINE SCHOOL DISTRICT","12092 W. State Hwy. 22
Branch
AR - 72928",54,"COUNTY LINE SCHOOL DISTRICT",488,0.0655737704918033,0.120901639344262,0.133196721311475,0.0184426229508197,0.71516393442623,0.905737704918033,0.0102459016393443,0.0102459016393443,0.0737704918032787,0.0942622950819672,1,0,2403000,"2403000",-93.9189401,35.3078324
"55",1901000,"CROSS COUNTY SCHOOL DISTRICT","21 Cr 215
Cherry Valley
AR - 72324",56,"CROSS COUNTY SCHOOL DISTRICT",581,0.0863557858376511,0.122625215889465,0.132987910189983,0.00518134715025907,0.724612736660929,0.910499139414802,0.0258175559380379,0.0602409638554217,0.00344234079173838,0.0895008605851979,2,0,1901000,"1901000",-90.8072052,35.4041709
"56",201000,"CROSSETT SCHOOL DISTRICT","219 Main
Crossett
AR - 71635",57,"CROSSETT SCHOOL DISTRICT",1633,0.0949173300673607,0.0912431108389467,0,0.0202082057562768,0.630128597672994,0.613594611145132,0.0257195345988977,0.337415799142682,0.0232700551132884,0.386405388854868,5,0,201000,"201000",-91.9610549,33.1327466
"57",2601000,"CUTTER-MORNING STAR SCHOOL DISTRICT","2801 Spring Street
Hot Springs
AR - 71901",58,"CUTTER-MORNING STAR SCHOOL DISTRICT",632,0.134493670886076,0.139240506329114,0.0237341772151899,0.0300632911392405,0.748417721518987,0.789556962025316,0.0965189873417722,0.0284810126582278,0.0854430379746835,0.210443037974684,3,0,2601000,"2601000",-92.9895781,34.5035993
"58",7503000,"DANVILLE SCHOOL DISTRICT","Po Box 939
Danville
AR - 72833",59,"DANVILLE SCHOOL DISTRICT",842,0.13895486935867,0.155581947743468,0.00831353919239905,0.292161520190024,0.76603325415677,0.433491686460808,0.527315914489311,0.0130641330166271,0.0261282660332542,0.566508313539192,1,0,7503000,"7503000",-93.3908965,35.0530184
"59",7504000,"DARDANELLE SCHOOL DISTRICT","102 South Front
Dardanelle
AR - 72834",60,"DARDANELLE SCHOOL DISTRICT",2167,0.0499075785582255,0.154343807763401,0.00878003696857671,0.203789279112754,0.701892016612829,0.613290263036456,0.343331795108445,0.0175357637286571,0.0258421781264421,0.386709736963544,1,0,7504000,"7504000",-93.1533592,35.2201772
"60",402000,"DECATUR SCHOOL DISTRICT","1498 Stadium Ave
Decatur
AR - 72722",61,"DECATUR SCHOOL DISTRICT",553,0.0958408679927667,0.130198915009042,0.00180831826401447,0.292947558770344,0.793851717902351,0.520795660036166,0.361663652802893,0.027124773960217,0.0904159132007233,0.479204339963834,1,0,402000,"402000",-94.447189,36.332757
"61",5106000,"DEER/MT. JUDEA SCHOOL DISTRICT","Hwy 16
Deer
AR - 72628",62,"DEER/MT. JUDEA SCHOOL DISTRICT",377,0.0664893617021277,0.0957446808510638,0,0,0.724137931034483,0.941644562334218,0.00795755968169761,0.0026525198938992,0.0477453580901857,0.0583554376657825,1,0,5106000,"5106000",-93.2099072,35.8263451
"62",6701000,"DEQUEEN SCHOOL DISTRICT","101 North 9Th St
De Queen
AR - 71832",63,"DEQUEEN SCHOOL DISTRICT",2411,0.0514309415180423,0.080464537536292,0.0273745333886354,0.387805889672335,0.739112401493156,0.28369970966404,0.610535047698051,0.0228121111571962,0.0829531314807134,0.71630029033596,4,0,6701000,"6701000",-94.3478828,34.0370466
"63",901000,"DERMOTT SCHOOL DISTRICT","525 E Speedway Hwy35
Dermott
AR - 71638",64,"DERMOTT SCHOOL DISTRICT",343,0.0641399416909621,0.17201166180758,0,0.00291545189504373,0.944606413994169,0.032069970845481,0.0204081632653061,0.935860058309038,0.0116618075801749,0.967930029154519,5,0,901000,"901000",-91.4288995,33.5218686
"64",5901000,"DES ARC SCHOOL DISTRICT","600 Main Street
Des Arc
AR - 72040",65,"DES ARC SCHOOL DISTRICT",564,0.0939716312056738,0.132978723404255,0.0514184397163121,0.00531914893617021,0.709219858156028,0.890070921985816,0.0195035460992908,0.0797872340425532,0.0106382978723404,0.109929078014184,5,0,5901000,"5901000",-91.4990372,34.9778368
"65",101000,"DEWITT SCHOOL DISTRICT","422 W First
Dewitt
AR - 72042",66,"DEWITT SCHOOL DISTRICT",1219,0.109105824446267,0.123872026251025,0.0114848236259229,0.029532403609516,0.599180327868852,0.794093519278097,0.0451189499589828,0.115668580803938,0.0451189499589828,0.205906480721903,5,0,101000,"101000",-91.3398057,34.2948074
"66",3102000,"DIERKS SCHOOL DISTRICT","900 Old Hwy 70 West
Dierks
AR - 71833",67,"DIERKS SCHOOL DISTRICT",571,0.0718038528896672,0.124343257443082,0.00175131348511384,0.031523642732049,0.646234676007005,0.907180385288967,0.0630472854640981,0.00700525394045534,0.0227670753064799,0.0928196147110333,4,0,3102000,"3102000",-94.0304333,34.1190901
"67",6094000,"DIVISION OF YOUTH SERVICES SCHOOL SYSTEM","700 Maint St
Little Rock
AR - 72203",68,"DIVISION OF YOUTH SERVICES SCHOOL SYS",184,0,0.304347826086957,0,0,0.755434782608696,0.396739130434783,0.0652173913043478,0.532608695652174,0.00543478260869565,0.603260869565217,3,0,6094000,"6094000",-92.2718874,34.7418348
"68",3502000,"DOLLARWAY SCHOOL DISTRICT","4900 Dollarway Road
Pine Bluff
AR - 71602",69,"DOLLARWAY SCHOOL DISTRICT",961,0.0832466181061394,0.145681581685744,0.0208116545265349,0.0187304890738814,0.933402705515088,0.0520291363163371,0.0239334027055151,0.911550468262227,0.0124869927159209,0.947970863683663,3,0,3502000,"3502000",-92.0553782,34.2406032
"69",5802000,"DOVER SCHOOL DISTRICT","9371 Market St
Dover
AR - 72837",70,"DOVER SCHOOL DISTRICT",1351,0.0822222222222222,0.162222222222222,0.0244444444444444,0.00962962962962963,0.620281273131014,0.934122871946706,0.0355292376017765,0.00518134715025907,0.0251665433012583,0.0658771280532938,1,0,5802000,"5802000",-93.1145495,35.3970302
"70",2202000,"DREW CENTRAL SCHOOL DISTRICT","250 University Dr
Monticello
AR - 71655",71,"DREW CENTRAL SCHOOL DISTRICT",1029,0.104956268221574,0.155490767735666,0.00583090379008746,0.0505344995140913,0.733722060252673,0.645286686103013,0.0680272108843537,0.254616132167153,0.032069970845481,0.354713313896987,5,0,2202000,"2202000",-91.8009524,33.5934774
"71",2104000,"DUMAS SCHOOL DISTRICT","213 Adams St
Dumas
AR - 71639",72,"DUMAS SCHOOL DISTRICT",1215,0.0905349794238683,0.119341563786008,0.00987654320987654,0.0839506172839506,0.798353909465021,0.204115226337449,0.11440329218107,0.664197530864198,0.0172839506172839,0.795884773662551,5,0,2104000,"2104000",-91.4852019,33.886123
"72",1802000,"EARLE SCHOOL DISTRICT","1401 Third St
Earle
AR - 72331",73,"EARLE SCHOOL DISTRICT",540,0.111111111111111,0.127777777777778,0.0037037037037037,0,0.948148148148148,0.0166666666666667,0.0037037037037037,0.972222222222222,0.00740740740740741,0.983333333333333,2,0,1802000,"1802000",-90.4706688,35.2718692
"73",5301000,"EAST END SCHOOL DISTRICT","P.O. Box 360
Bigelow
AR - 72016",74,"EAST END SCHOOL DISTRICT",654,0.120795107033639,0.181957186544343,0.0305810397553517,0.0382262996941896,0.640672782874618,0.837920489296636,0.103975535168196,0.0214067278287462,0.036697247706422,0.162079510703364,1,0,5301000,"5301000",-92.6298847,35.0011986
"74",5608000,"EAST POINSETT CO. SCHOOL DIST.","502 Mcclellan St.
Lepanto
AR - 72354",75,"EAST POINSETT CO. SCHOOL DIST.",662,0.110438729198185,0.169440242057489,0.0529500756429652,0.0287443267776097,0.72809667673716,0.761329305135952,0.0845921450151057,0.11178247734139,0.0422960725075529,0.238670694864048,2,0,5608000,"5608000",-90.3407535,35.6099649
"75",7001000,"EL DORADO SCHOOL DISTRICT","200 West Oak Street
El Dorado
AR - 71730",76,"EL DORADO SCHOOL DISTRICT",4278,0.157082748948107,0.0923328658251519,0.0091164095371669,0.0453482935951379,0.643525011687704,0.376344086021505,0.0906965871902758,0.488078541374474,0.0448807854137447,0.623655913978495,4,0,7001000,"7001000",-92.6651976,33.2135621
"76",7201000,"ELKINS SCHOOL DISTRICT","349 N Center
Elkins
AR - 72727",77,"ELKINS SCHOOL DISTRICT",1270,0.0732283464566929,0.108661417322835,0.0488188976377953,0.021259842519685,0.466929133858268,0.889763779527559,0.047244094488189,0.0102362204724409,0.052755905511811,0.110236220472441,1,0,7201000,"7201000",-94.0097655,36.0048483
"77",1408000,"EMERSON-TAYLOR-BRADLEY SCHOOL DISTRICT","P.O. Box 129
Emerson
AR - 71740",78,"EMERSON-TAYLOR-BRADLEY SCHOOL DISTRIC",1025,0.138536585365854,0.0985365853658537,0.00585365853658537,0,0.506341463414634,0.789268292682927,0.0273170731707317,0.169756097560976,0.0136585365853659,0.210731707317073,4,0,1408000,"1408000",-93.1929441,33.0976347
"78",4302000,"ENGLAND SCHOOL DISTRICT","501 Pine Bluff Highway
England
AR - 72046",79,"ENGLAND SCHOOL DISTRICT",669,0.0717488789237668,0.15695067264574,0.0298953662182362,0.0597907324364723,0.762331838565022,0.497757847533632,0.0956651718983558,0.370702541106129,0.0358744394618834,0.502242152466368,3,0,4302000,"4302000",-91.954379,34.5426919
"79",6047700,"ESTEM PUBLIC CHARTER SCHOOL","123 West Third
Little Rock
AR - 72201",80,"ESTEM PUBLIC CHARTER SCHOOL",3070,0,0.0856677524429967,0.0214983713355049,0.0420195439739414,0.491205211726384,0.262866449511401,0.0840390879478827,0.580781758957655,0.0723127035830619,0.737133550488599,3,1,6047700,"6047700",-92.271695,34.7460322
"80",802000,"EUREKA SPRINGS SCHOOL DISTRICT","147 Greenwood Hollow
Eureka Springs
AR - 72632",81,"EUREKA SPRINGS SCHOOL DISTRICT",600,0.0866666666666667,0.141666666666667,0.01,0.07,0.583333333333333,0.871666666666667,0.085,0.0166666666666667,0.0266666666666667,0.128333333333333,1,0,802000,"802000",-93.7326586,36.3826457
"81",6055700,"EXALT ACADEMY OF SOUTHWEST LITTLE ROCK","6111 West 83Rd Street
Little Rock
AR - 72209",82,"EXALT ACADEMY OF SOUTHWEST LITTLE ROC",406,0,0.0665024630541872,0,0.517241379310345,0.958083832335329,0.0172413793103448,0.596059113300493,0.369458128078818,0.0172413793103448,0.982758620689655,3,1,6055700,"6055700",-92.3456376,34.6743674
"82",7202000,"FARMINGTON SCHOOL DISTRICT","42 S. Dbl Springs Rd
Farmington
AR - 72730",83,"FARMINGTON SCHOOL DISTRICT",2511,0.0933014354066986,0.123205741626794,0.00478468899521531,0.0422647527910686,0.312624452409399,0.830744723217842,0.0860215053763441,0.0242931103146157,0.0589406610911987,0.169255276782159,1,0,7202000,"7202000",-94.234537,36.0544377
"83",7203000,"FAYETTEVILLE SCHOOL DISTRICT","1000 W. Stone St.
Fayetteville
AR - 72701",84,"FAYETTEVILLE SCHOOL DISTRICT",10334,0.0884459067156958,0.134991290884459,0.0237081478614283,0.0756725372556609,0.373137216953745,0.675537062125024,0.119218114960325,0.0982194697116315,0.107025353203019,0.324462937874976,1,0,7203000,"7203000",-94.1724963,36.0594299
"84",4501000,"FLIPPIN SCHOOL DISTRICT","210 Alford St.
Flippin
AR - 72634",85,"FLIPPIN SCHOOL DISTRICT",870,0.120689655172414,0.158620689655172,0.179310344827586,0.00459770114942529,0.728735632183908,0.92183908045977,0.0206896551724138,0.00344827586206897,0.0540229885057471,0.0781609195402299,1,0,4501000,"4501000",-92.5978051,36.2794054
"85",2002000,"FORDYCE SCHOOL DISTRICT","104 College St
Fordyce
AR - 71742",86,"FORDYCE SCHOOL DISTRICT",764,0.132198952879581,0.12565445026178,0.0117801047120419,0.0183246073298429,0.704188481675393,0.362565445026178,0.0431937172774869,0.582460732984293,0.0117801047120419,0.637434554973822,4,0,2002000,"2002000",-92.4062446,33.8158182
"86",4102000,"FOREMAN SCHOOL DISTRICT","700 Rocky Comfort St
Foreman
AR - 71836",87,"FOREMAN SCHOOL DISTRICT",526,0.0437262357414449,0.127376425855513,0,0.0171102661596958,0.67680608365019,0.741444866920152,0.0532319391634981,0.140684410646388,0.064638783269962,0.258555133079848,4,0,4102000,"4102000",-94.3941642,33.7130964
"87",6201000,"FORREST CITY SCHOOL DISTRICT","845 North Rosser
Forrest City
AR - 72335",88,"FORREST CITY SCHOOL DISTRICT",2206,0.0793291024478694,0.14505893019039,0.013599274705349,0.0176790571169538,0.826382592928377,0.0584768812330009,0.0194922937443336,0.898458748866727,0.0235720761559383,0.941523118766999,2,0,6201000,"6201000",-90.788799,35.015872
"88",6601000,"FORT SMITH SCHOOL DISTRICT","3205 Jenny Lind Rd
Fort Smith
AR - 72902-1948",89,"FORT SMITH SCHOOL DISTRICT",14119,0.0565396060649001,0.12746209437438,0.00751027348731756,0.231330593736715,0.723068205963595,0.411856363765139,0.329414264466322,0.112401728167717,0.146327643600822,0.588143636234861,1,0,6601000,"6601000",-94.4113936,35.3508623
"89",4603000,"FOUKE SCHOOL DISTRICT","200 North Davis
Fouke
AR - 71837",90,"FOUKE SCHOOL DISTRICT",1089,0.114784205693297,0.0927456382001837,0.0183654729109275,0,0.593204775022957,0.954086317722681,0.0192837465564738,0.00183654729109275,0.0247933884297521,0.0459136822773186,4,0,4603000,"4603000",-93.8820721,33.2587907
"90",2602000,"FOUNTAIN LAKE SCHOOL DISTRICT","4207 Park Ave.
Hot Springs
AR - 71901",91,"FOUNTAIN LAKE SCHOOL DISTRICT",1377,0.0698181818181818,0.138909090909091,0.0123636363636364,0.0247272727272727,0.531590413943355,0.838779956427015,0.0929557007988381,0.0116194625998548,0.0566448801742919,0.161220043572985,3,0,2602000,"2602000",-92.9883591,34.5727923
"91",3544700,"FRIENDSHIP ASPIRE ACADEMY PINE BLUFF","3911 South Hazel
Pine Bluff
AR - 71603",92,"FRIENDSHIP ASPIRE ACADEMY PINE BLUFF",112,0,0,0.196428571428571,0.0178571428571429,0.928571428571429,0.00892857142857143,0.0178571428571429,0.955357142857143,0.0178571428571429,0.991071428571429,3,1,3544700,"3544700",-92.0232769,34.1895481
"92",6640700,"FUTURE SCHOOL OF FORT SMITH","622 North 7Th Street
Fort Smith
AR - 72917",93,"FUTURE SCHOOL OF FORT SMITH",225,0,0.111111111111111,0,0.16,0.693333333333333,0.431111111111111,0.288888888888889,0.164444444444444,0.115555555555556,0.568888888888889,1,0,6640700,"6640700",-94.4193372,35.3914905
"93",4602000,"GENOA CENTRAL SCHOOL DISTRICT","12472 St Hwy 196
Texarkana
AR - 71854",94,"GENOA CENTRAL SCHOOL DISTRICT",1176,0.112244897959184,0.0688775510204082,0.00425170068027211,0.00510204081632653,0.422619047619048,0.967687074829932,0.0127551020408163,0.00170068027210884,0.0178571428571429,0.032312925170068,4,0,4602000,"4602000",-93.8742004,33.3734662
"94",403000,"GENTRY SCHOOL DISTRICT","201 S. Giles Ave.
Gentry
AR - 72734",95,"GENTRY SCHOOL DISTRICT",1442,0.054823039555864,0.124219292158223,0.0381679389312977,0.118667591950035,0.599861303744799,0.648404993065187,0.147018030513176,0.00485436893203883,0.199722607489598,0.351595006934813,1,0,403000,"403000",-94.486774,36.265659
"95",3002000,"GLEN ROSE SCHOOL DISTRICT","14334 Hwy 67
Malvern
AR - 72104",96,"GLEN ROSE SCHOOL DISTRICT",1031,0.061105722599418,0.127061105722599,0.0223084384093113,0.000969932104752667,0.527643064985451,0.922405431619787,0.032007759456838,0.00678952473326867,0.0387972841901067,0.0775945683802134,3,0,3002000,"3002000",-92.730456,34.456103
"96",4708000,"GOSNELL SCHOOL DISTRICT","600 Highway 181 N
Gosnell
AR - 72315",97,"GOSNELL SCHOOL DISTRICT",1276,0.0752941176470588,0.133333333333333,0.00705882352941176,0.00941176470588235,0.721786833855799,0.665360501567398,0.0713166144200627,0.218652037617555,0.0446708463949843,0.334639498432602,2,0,4708000,"4708000",-89.966343,35.963773
"97",6052700,"GRADUATE ARKANSAS  CHARTER","6900 Scott Hamilton Rd
Little Rock
AR - 72209",227,"SIATECH LITTLE ROCK CHARTER",125,0,0.056,0,0.016,0.816,0.048,0.056,0.888,0.008,0.952,3,1,6052700,"6052700",-92.3209224,34.68593
"98",404000,"GRAVETTE SCHOOL DISTRICT","609 Birmingham S.E.
Gravette
AR - 72736",98,"GRAVETTE SCHOOL DISTRICT",1877,0.0538092701118807,0.136387852956846,0.00639318060735216,0.041555673947789,0.488012786361215,0.847629195524774,0.0692594565796484,0.00586041555673948,0.0772509323388386,0.152370804475226,1,0,404000,"404000",-94.4473544,36.4201554
"99",803000,"GREEN FOREST SCHOOL DISTRICT","400 East 10Th St
Green Forest
AR - 72638",99,"GREEN FOREST SCHOOL DISTRICT",1325,0.0709969788519638,0.126132930513595,0.040785498489426,0.367824773413897,0.833207547169811,0.44377358490566,0.449811320754717,0.00528301886792453,0.101132075471698,0.55622641509434,1,0,803000,"803000",-93.4315919,36.3279832
"100",2303000,"GREENBRIER SCHOOL DISTRICT","4 School Drive
Greenbrier
AR - 72058",100,"GREENBRIER SCHOOL DISTRICT",3540,0.118926553672316,0.0889830508474576,0.0101694915254237,0.00819209039548023,0.377118644067797,0.917796610169492,0.0355932203389831,0.0194915254237288,0.0271186440677966,0.0822033898305085,3,0,2303000,"2303000",-92.3883624,35.2326904
"101",2807000,"GREENE COUNTY TECH SCHOOL DISTRICT","5413 W Kingshighway
Paragould
AR - 72450",101,"GREENE COUNTY TECH SCHOOL DISTRICT",3592,0.129490392648287,0.165135059871902,0.0253411306042885,0.0247841826789195,0.496937639198218,0.9206570155902,0.0361915367483296,0.0270044543429844,0.0161469933184855,0.0793429844097996,2,0,2807000,"2807000",-90.5561304,36.0664428
"102",7204000,"GREENLAND SCHOOL DISTRICT","10 North Main
Greenland
AR - 72737",102,"GREENLAND SCHOOL DISTRICT",766,0.147519582245431,0.164490861618799,0.077023498694517,0.0300261096605744,0.642297650130548,0.847258485639687,0.0861618798955614,0.010443864229765,0.0561357702349869,0.152741514360313,1,0,7204000,"7204000",-94.1737144,35.994644
"103",6602000,"GREENWOOD SCHOOL DISTRICT","420 North Main
Greenwood
AR - 72936",103,"GREENWOOD SCHOOL DISTRICT",3778,0.0895127118644068,0.137182203389831,0.0124470338983051,0.0177436440677966,0.335627316040233,0.86791953414505,0.0465854949708841,0.0105876124933827,0.0749073583906829,0.13208046585495,1,0,6602000,"6602000",-94.2558404,35.2185974
"104",1003000,"GURDON SCHOOL DISTRICT","#1 Go-Devil Rd
Gurdon
AR - 71743",104,"GURDON SCHOOL DISTRICT",686,0.110787172011662,0.144314868804665,0,0.0801749271137026,0.753644314868805,0.524781341107872,0.193877551020408,0.246355685131195,0.0349854227405248,0.475218658892128,4,0,1003000,"1003000",NA,NA
"105",2304000,"GUY-PERKINS SCHOOL DISTRICT","492 Highway 25 North
Guy
AR - 72061",105,"GUY-PERKINS SCHOOL DISTRICT",335,0.0925373134328358,0.194029850746269,0.226865671641791,0,0.665671641791045,0.853731343283582,0.0208955223880597,0.11044776119403,0.0149253731343284,0.146268656716418,3,0,2304000,"2304000",-92.325072,35.324573
"106",7240700,"HAAS HALL ACADEMY","3155 N. College Ave Ste 108
Fayetteville
AR - 72730",106,"HAAS HALL ACADEMY",941,0,0,0,0,0.0924548352816153,0.697130712008502,0.125398512221041,0.0233793836344315,0.154091392136026,0.302869287991498,1,1,7240700,"7240700",-94.1458584,36.108574
"107",443700,"HAAS HALL BENTONVILLE","3880 Front Street
Fayetteville
AR - 72703",107,"HAAS HALL BENTONVILLE",419,0,0,0,0,0.00954653937947494,0.673031026252983,0.0978520286396181,0.0119331742243437,0.217183770883055,0.326968973747017,1,1,443700,"443700",-94.1432995,36.1218844
"108",6603000,"HACKETT SCHOOL DISTRICT","102 North Oak Street
Hackett
AR - 72937",108,"HACKETT SCHOOL DISTRICT",756,0.166666666666667,0.142857142857143,0.123015873015873,0.00529100529100529,0.701058201058201,0.85978835978836,0.041005291005291,0.00529100529100529,0.0939153439153439,0.14021164021164,1,0,6603000,"6603000",-94.4092473,35.1866287
"109",203000,"HAMBURG SCHOOL DISTRICT","202 East Parker St
Hamburg
AR - 71646",109,"HAMBURG SCHOOL DISTRICT",1721,0.0906449738524114,0.0981987216734457,0.0342823939570017,0.115630447414294,0.658919233004067,0.614758861127252,0.167344567112144,0.203951191167926,0.0139453805926787,0.385241138872748,5,0,203000,"203000",-91.7966551,33.2242066
"110",701000,"HAMPTON SCHOOL DISTRICT","Hwy 278 East
Hampton
AR - 71744",110,"HAMPTON SCHOOL DISTRICT",573,0.12739965095986,0.136125654450262,0.139616055846422,0.00698080279232112,0.732984293193717,0.699825479930192,0.0680628272251309,0.230366492146597,0.00174520069808028,0.300174520069808,4,0,701000,"701000",-92.4698762,33.537892
"111",6304000,"HARMONY GROVE SCH DIST(SALINE)","2621 Hwy. 229
Benton
AR - 72015",111,"HARMONY GROVE SCH DIST(SALINE)",1234,0.0826580226904376,0.121555915721232,0.00567260940032415,0.0105348460291734,0.371150729335494,0.923014586709887,0.0388978930307942,0.0137763371150729,0.0243111831442464,0.0769854132901135,3,0,6304000,"6304000",-92.6436156,34.5100487
"112",5205000,"HARMONY GROVE SCHOOL DISTRICT (OUACHITA)","401 Ouachita 88
Camden
AR - 71701",112,"HARMONY GROVE SCHOOL DISTRICT (OUACHI",935,0.0577540106951872,0.115508021390374,0,0.00213903743315508,0.552941176470588,0.73048128342246,0.0577540106951872,0.188235294117647,0.0235294117647059,0.26951871657754,4,0,5205000,"5205000",-92.778314,33.6516284
"113",5602000,"HARRISBURG SCHOOL DISTRICT","207 West Estes
Harrisburg
AR - 72432",113,"HARRISBURG SCHOOL DISTRICT",1191,0.127731092436975,0.187394957983193,0.0630252100840336,0.0126050420168067,0.741393786733837,0.904282115869018,0.0470193115029387,0.0377833753148615,0.0109151973131822,0.0957178841309824,2,0,5602000,"5602000",-90.723797,35.5595798
"114",503000,"HARRISON SCHOOL DISTRICT","110 South Cherry St
Harrison
AR - 72601",114,"HARRISON SCHOOL DISTRICT",2686,0.0692479523454952,0.10536113179449,0.0562174236783321,0.00930752047654505,0.505212211466865,0.916976917349218,0.0390915860014892,0.00446760982874162,0.039463886820551,0.0830230826507818,1,0,503000,"503000",-93.1128197,36.2296063
"115",5903000,"HAZEN SCHOOL DISTRICT","477 N. Hazen Ave.
Hazen
AR - 72064",115,"HAZEN SCHOOL DISTRICT",569,0.112478031634446,0.147627416520211,0.0193321616871705,0.00527240773286467,0.710017574692443,0.75219683655536,0.015817223198594,0.216168717047452,0.015817223198594,0.24780316344464,5,0,5903000,"5903000",-91.580752,34.7843835
"116",1202000,"HEBER SPRINGS SCHOOL DISTRICT","1100 West Pine St
Heber Springs
AR - 72543",116,"HEBER SPRINGS SCHOOL DISTRICT",1602,0.0948813982521848,0.153558052434457,0.00249687890137328,0.0131086142322097,0.543695380774032,0.911985018726592,0.0561797752808989,0.0031210986267166,0.0287141073657928,0.0880149812734082,2,0,1202000,"1202000",-92.0409354,35.495736
"117",5803000,"HECTOR SCHOOL DISTRICT","11520 Sr 27
Hector
AR - 72843",117,"HECTOR SCHOOL DISTRICT",576,0.123263888888889,0.164930555555556,0.133680555555556,0.00694444444444444,0.730902777777778,0.935763888888889,0.0364583333333333,0.00173611111111111,0.0260416666666667,0.0642361111111111,1,0,5803000,"5803000",-92.9748541,35.4690086
"118",5403000,"HELENA/ WEST HELENA SCHOOL DISTRICT","305 Valley Dr
Helena
AR - 72342",118,"HELENA/ WEST HELENA SCHOOL DISTRICT",1244,0.092443729903537,0.119774919614148,0.0184887459807074,0.000803858520900322,0.966210780370072,0.0442122186495177,0.00160771704180064,0.947749196141479,0.00643086816720257,0.955787781350482,5,0,5403000,"5403000",-90.6209716,34.5402335
"119",601000,"HERMITAGE SCHOOL DISTRICT","312 North School Dr
Hermitage
AR - 71647",119,"HERMITAGE SCHOOL DISTRICT",427,0.140515222482436,0.114754098360656,0.0187353629976581,0.194379391100703,0.754098360655738,0.548009367681499,0.278688524590164,0.168618266978923,0.00468384074941452,0.451990632318501,5,0,601000,"601000",-92.1714109,33.4521582
"120",6804000,"HIGHLAND SCHOOL DISTRICT","1 Rebel Cir
Hardy
AR - 72542",120,"HIGHLAND SCHOOL DISTRICT",1639,0.0555555555555556,0.105616605616606,0.0323565323565324,0.00122100122100122,0.725274725274725,0.951799877974375,0.026235509456986,0.0115924344112264,0.0103721781574131,0.0482001220256254,2,0,6804000,"6804000",-91.5314326,36.2617891
"121",3809000,"HILLCREST SCHOOL DISTRICT","146 South Main St
Strawberry
AR - 72469",121,"HILLCREST SCHOOL DISTRICT",411,0.0218978102189781,0.155717761557178,0.072992700729927,0.0072992700729927,0.712895377128954,0.970802919708029,0.0194647201946472,0.0024330900243309,0.0072992700729927,0.0291970802919708,2,0,3809000,"3809000",-91.3213318,35.9650966
"122",2903000,"HOPE SCHOOL DISTRICT","117 E Second Street
Hope
AR - 71801",122,"HOPE SCHOOL DISTRICT",2239,0.129075480125056,0.119249665029031,0.045109423849933,0.238052702099151,0.831621259490844,0.183117463153193,0.331397945511389,0.465386333184457,0.0200982581509602,0.816882536846807,4,0,2903000,"2903000",-93.5909463,33.6679441
"123",6703000,"HORATIO SCHOOL DISTRICT","205 Isbell St
Horatio
AR - 71842",123,"HORATIO SCHOOL DISTRICT",852,0.0563380281690141,0.110328638497653,0.00234741784037559,0.133802816901408,0.73943661971831,0.73943661971831,0.214788732394366,0.00938967136150235,0.0363849765258216,0.26056338028169,4,0,6703000,"6703000",-94.3496859,33.9384804
"124",2603000,"HOT SPRINGS SCHOOL DISTRICT","400 Linwood Ave
Hot Springs
AR - 71913",124,"HOT SPRINGS SCHOOL DISTRICT",3532,0.0626239727968263,0.163219042221593,0.050439217908756,0.0986115046755455,0.823046432616082,0.347112117780294,0.19762174405436,0.361551528878822,0.0937146092865232,0.652887882219706,3,0,2603000,"2603000",-93.0612979,34.4975884
"125",3804000,"HOXIE SCHOOL DISTRICT","602 Sw Hartigan
Hoxie
AR - 72433",125,"HOXIE SCHOOL DISTRICT",817,0.121175030599755,0.172582619339045,0.0379436964504284,0,0.745410036719706,0.936352509179927,0.02937576499388,0.00489596083231334,0.02937576499388,0.0636474908200734,2,0,3804000,"3804000",-90.9821887,36.0491947
"126",4401000,"HUNTSVILLE SCHOOL DISTRICT","P O Drawer F
Huntsville
AR - 72740",126,"HUNTSVILLE SCHOOL DISTRICT",2217,0.0838971583220568,0.115922417681552,0.040595399188092,0.0626973387460532,0.641407307171854,0.834009923319802,0.0929183581416328,0.004510599909788,0.0685611186287776,0.165990076680198,1,0,4401000,"4401000",-93.7413032,36.086187
"127",3840700,"IMBODEN CHARTER SCHOOL DISTRICT","605 W 3Rd Street
Imboden
AR - 72434",127,"IMBODEN CHARTER SCHOOL DISTRICT",59,0,0.338983050847458,0.0169491525423729,0,0.813559322033898,0.932203389830508,0,0.0508474576271186,0.0169491525423729,0.0677966101694915,2,1,3840700,"3840700",-91.1801196,36.204242
"128",3306000,"IZARD COUNTY CONSOLIDATED SCHOOL DISTRICT","P.O. Box 115
Brockwell
AR - 72517",128,"IZARD COUNTY CONSOLIDATED SCHOOL DIST",510,0.0980392156862745,0.16078431372549,0.0235294117647059,0,0.750980392156863,0.950980392156863,0.0156862745098039,0.00784313725490196,0.0254901960784314,0.0490196078431373,2,0,3306000,"3306000",-91.9235886,36.1550217
"129",3405000,"JACKSON CO. SCHOOL DISTRICT","300 North Dowell
Tuckerman
AR - 72473",129,"JACKSON CO. SCHOOL DISTRICT",868,0.0714285714285714,0.152073732718894,0.00691244239631336,0,0.661290322580645,0.913594470046083,0.0115207373271889,0.0587557603686636,0.0161290322580645,0.0864055299539171,2,0,3405000,"3405000",-91.202322,35.7338717
"130",6050700,"JACKSONVILLE LIGHTHOUSE CHARTER","251 North First St
Jacksonville
AR - 72076",130,"JACKSONVILLE LIGHTHOUSE CHARTER",800,0.07875,0.06875,0,0.06625,0.60625,0.245,0.09125,0.62625,0.0375,0.755,3,1,6050700,"6050700",-92.1080229,34.8684843
"131",6004000,"JACKSONVILLE NORTH PULASKI SCHOOL DISTRICT","1414 West Main St
Jacksonville
AR - 72076",131,"JACKSONVILLE NORTH PULASKI SCHOOL DIS",3958,0.0881758463870642,0.156139464375947,0.000505305709954523,0.0305709954522486,0.73521980798383,0.343860535624053,0.0778170793329965,0.516169782718545,0.0621526023244063,0.656139464375947,3,0,6004000,"6004000",-92.125095,34.868367
"132",5102000,"JASPER SCHOOL DISTRICT","P O Box 446
Jasper
AR - 72641",132,"JASPER SCHOOL DISTRICT",847,0.105076741440378,0.141676505312869,0.177095631641086,0.00118063754427391,0.709563164108619,0.964580873671783,0.012987012987013,0.00590318772136954,0.0165289256198347,0.0354191263282172,1,0,5102000,"5102000",-93.1865659,36.0081324
"133",2604000,"JESSIEVILLE SCHOOL DISTRICT","7900 N Hwy 7
Jessieville
AR - 71949",133,"JESSIEVILLE SCHOOL DISTRICT",848,0.0660377358490566,0.115566037735849,0.0636792452830189,0.027122641509434,0.724056603773585,0.893867924528302,0.0436320754716981,0.0200471698113208,0.0424528301886792,0.106132075471698,3,0,2604000,"2604000",-93.0627617,34.7004673
"134",1608000,"JONESBORO SCHOOL DISTRICT","2506 Southwest Sq
Jonesboro
AR - 72401-3968",134,"JONESBORO SCHOOL DISTRICT",6518,0.115567850007684,0.150453357922238,0.00522514215460274,0.0737667127708622,0.741945382019024,0.346118441239644,0.13470389690089,0.464559680883707,0.0546179809757594,0.653881558760356,2,0,1608000,"1608000",-90.7084866,35.8168413
"135",7003000,"JUNCTION CITY SCHOOL DISTRICT","Po Box 790
Junction City
AR - 71749",135,"JUNCTION CITY SCHOOL DISTRICT",656,0.0899390243902439,0.0853658536585366,0.120426829268293,0.00609756097560976,0.614736842105263,0.600609756097561,0.0213414634146341,0.371951219512195,0.00609756097560976,0.399390243902439,4,0,7003000,"7003000",-92.7281562,33.0202476
"136",5440700,"KIPP DELTA PUBLIC SCHOOLS","415 Ohio St
Helena
AR - 72342",136,"KIPP DELTA PUBLIC SCHOOLS",1222,0,0.130932896890344,0.00409165302782324,0.00572831423895254,0.899345335515548,0.0687397708674304,0.0253682487725041,0.890343698854337,0.0155482815057283,0.93126022913257,5,1,5440700,"5440700",-90.5851328,34.5265688
"137",5503000,"KIRBY SCHOOL DISTRICT","2614 Hwy 27N
Kirby
AR - 71950",137,"KIRBY SCHOOL DISTRICT",361,0.10803324099723,0.0941828254847645,0.0221606648199446,0.0526315789473684,0.772853185595568,0.864265927977839,0.0997229916897507,0,0.03601108033241,0.135734072022161,4,0,5503000,"5503000",-93.6399655,34.2482513
"138",3704000,"LAFAYETTE COUNTY SCHOOL DISTRICT","712 Chestnut St
Lewisville
AR - 71845",138,"LAFAYETTE COUNTY SCHOOL DISTRICT",544,0.0977859778597786,0.107011070110701,0.0239852398523985,0,0.865808823529412,0.301470588235294,0.03125,0.641544117647059,0.0257352941176471,0.698529411764706,4,0,3704000,"3704000",-93.5789992,33.3618896
"139",2605000,"LAKE HAMILTON SCHOOL DISTRICT","205 Wolf Street
Pearcy
AR - 71964",139,"LAKE HAMILTON SCHOOL DISTRICT",4415,0.058983666061706,0.10480943738657,0.00907441016333938,0.0530852994555354,0.563306908267271,0.774631936579841,0.111891279728199,0.0391845979614949,0.0742921857304643,0.225368063420159,3,0,2605000,"2605000",-93.2103501,34.4431667
"140",903000,"LAKESIDE SCHOOL DIST(CHICOT)","1110 South Lakeshore
Lake Village
AR - 71653",140,"LAKESIDE SCHOOL DIST(CHICOT)",998,0.122244488977956,0.114228456913828,0.00200400801603206,0.0861723446893788,0.835671342685371,0.118236472945892,0.135270541082164,0.7374749498998,0.00901803607214429,0.881763527054108,5,0,903000,"903000",-91.2829526,33.3217377
"141",2606000,"LAKESIDE SCHOOL DIST(GARLAND)","2837 Malvern Avenue
Hot Springs
AR - 71901",141,"LAKESIDE SCHOOL DIST(GARLAND)",3516,0.0558086560364465,0.107630979498861,0.020501138952164,0.046127562642369,0.382536973833902,0.737770193401593,0.108077360637088,0.0833333333333333,0.0708191126279863,0.262229806598407,3,0,2606000,"2606000",-92.9957391,34.4738125
"142",3604000,"LAMAR SCHOOL DISTRICT","301 Elberta St.
Lamar
AR - 72846",142,"LAMAR SCHOOL DISTRICT",1359,0.0875643855776306,0.161883738042678,0.0419426048565121,0.0242825607064018,0.679175864606328,0.876379690949227,0.0787343635025754,0.0213392200147167,0.0235467255334805,0.123620309050773,1,0,3604000,"3604000",-93.3957241,35.4347338
"143",6605000,"LAVACA SCHOOL DISTRICT","203 Fir St
Lavaca
AR - 72941",143,"LAVACA SCHOOL DISTRICT",820,0.0731707317073171,0.163414634146341,0.024390243902439,0.0280487804878049,0.535365853658537,0.830487804878049,0.0621951219512195,0.00365853658536585,0.103658536585366,0.169512195121951,1,0,6605000,"6605000",-94.1747552,35.3333648
"144",3810000,"LAWRENCE COUNTY SCHOOL DISTRICT","508 East Free St
Walnut Ridge
AR - 72476",144,"LAWRENCE COUNTY SCHOOL DISTRICT",887,0.108352144469526,0.169300225733634,0.018058690744921,0.0259593679458239,0.56369785794814,0.90304396843292,0.0372040586245772,0.00789177001127396,0.0518602029312289,0.09695603156708,2,0,3810000,"3810000",-90.9566245,36.0621909
"145",506000,"LEAD HILL SCHOOL DISTRICT","6966 Milum Rd
Lead Hill
AR - 72644",145,"LEAD HILL SCHOOL DISTRICT",354,0.0988700564971751,0.155367231638418,0.138418079096045,0.0225988700564972,0.771186440677966,0.887005649717514,0.0423728813559322,0.00282485875706215,0.0677966101694915,0.112994350282486,1,0,506000,"506000",-92.9074876,36.4068536
"146",3904000,"LEE COUNTY SCHOOL DISTRICT","175 Walnut St
Marianna
AR - 72360",146,"LEE COUNTY SCHOOL DISTRICT",691,0.0520984081041968,0.175108538350217,0.00868306801736614,0.00868306801736614,0.908827785817656,0.0897250361794501,0.0347322720694645,0.865412445730825,0.0101302460202605,0.91027496382055,5,0,3904000,"3904000",-90.7633542,34.7770126
"147",7205000,"LINCOLN SCHOOL DISTRICT","Po Box 1127
Lincoln
AR - 72744",147,"LINCOLN SCHOOL DISTRICT",1129,0.103631532329495,0.162090345438441,0.0310008857395926,0.0682019486271036,0.699734278122232,0.788308237378211,0.0965456155890168,0.012400354295837,0.102745792736935,0.211691762621789,1,0,7205000,"7205000",-94.4235482,35.949526
"148",6041700,"LISA ACADEMY","10825 Financial Centre Parkway Ste 360
Little Rock
AR - 72211-6484",148,"LISA ACADEMY",2218,0.142470694319207,0.102795311091073,0.0018034265103697,0.161857529305681,0.585211902614968,0.211000901713255,0.239404869251578,0.428764652840397,0.12082957619477,0.788999098286745,3,1,6041700,"6041700",-92.3960243,34.7474042
"149",6049700,"LITTLE ROCK PREPARATORY ACADEMY","1215 S Schiller St
Little Rock
AR - 72206",149,"LITTLE ROCK PREPARATORY ACADEMY",361,0,0.0803324099722992,0,0.0637119113573407,0.706395348837209,0.0138504155124654,0.0969529085872576,0.883656509695291,0.00554016620498615,0.986149584487535,3,1,6049700,"6049700",-92.2959929,34.7390069
"150",6001000,"LITTLE ROCK SCHOOL DISTRICT","810 W. Markham St.
Little Rock
AR - 72201-1306",150,"LITTLE ROCK SCHOOL DISTRICT",21595,0.213058578374624,0.125445705024311,0.015142394072702,0.140680713128039,0.717203056263024,0.189627228525122,0.151840703866636,0.613475341514239,0.0450567260940032,0.810372771474879,3,0,6001000,"6001000",-92.2792954,34.7496868
"151",4301000,"LONOKE SCHOOL DISTRICT","401 W. Holly St
Lonoke
AR - 72086",151,"LONOKE SCHOOL DISTRICT",1720,0.0808139534883721,0.119767441860465,0.022093023255814,0.0546511627906977,0.644767441860465,0.649418604651163,0.0837209302325581,0.228488372093023,0.0383720930232558,0.350581395348837,3,0,4301000,"4301000",-91.9052887,34.7798302
"152",4202000,"MAGAZINE SCHOOL DISTRICT","292 E Priddy St
Magazine
AR - 72943",152,"MAGAZINE SCHOOL DISTRICT",520,0.109615384615385,0.175,0.00961538461538462,0.00961538461538462,0.809615384615385,0.930769230769231,0.0230769230769231,0.00192307692307692,0.0442307692307692,0.0692307692307692,1,0,4202000,"4202000",-93.8026676,35.1493356
"153",3003000,"MAGNET COVE SCHOOL DIST.","472 Magnet School Rd
Malvern
AR - 72104",153,"MAGNET COVE SCHOOL DIST.",740,0.0891891891891892,0.122972972972973,0.0135135135135135,0,0.489189189189189,0.918918918918919,0.0243243243243243,0.00945945945945946,0.0472972972972973,0.0810810810810811,3,0,3003000,"3003000",-92.8367309,34.4490942
"154",1402000,"MAGNOLIA SCHOOL DISTRICT","1403 High School Dr
Magnolia
AR - 71754-649",154,"MAGNOLIA SCHOOL DISTRICT",2700,0.10037037037037,0.110740740740741,0.0185185185185185,0.0203703703703704,0.711481481481481,0.378888888888889,0.0488888888888889,0.524444444444444,0.0477777777777778,0.621111111111111,4,0,1402000,"1402000",-93.2238794,33.2790003
"155",3004000,"MALVERN SCHOOL DISTRICT","1620 South Main St
Malvern
AR - 72104",155,"MALVERN SCHOOL DISTRICT",1940,0.0809278350515464,0.179896907216495,0.00412371134020619,0.0489690721649485,0.760309278350515,0.525773195876289,0.0994845360824742,0.285051546391753,0.0896907216494845,0.474226804123711,3,0,3004000,"3004000",-92.8073191,34.3530057
"156",2501000,"MAMMOTH SPRING SCHOOL DISTRICT","410 Goldsmith Ave
Mammoth Spring
AR - 72554",156,"MAMMOTH SPRING SCHOOL DISTRICT",461,0.0845986984815618,0.127982646420824,0.0325379609544469,0,0.725490196078431,0.971800433839479,0.00650759219088937,0,0.0216919739696312,0.0281995661605206,2,0,2501000,"2501000",-91.5418977,36.4908199
"157",4712000,"MANILA SCHOOL DISTRICT","419 E Olympia St
Manila
AR - 72442",157,"MANILA SCHOOL DISTRICT",1063,0.0997177798682973,0.157102539981185,0.09689557855127,0.00846660395108184,0.604891815616181,0.943555973659454,0.0451552210724365,0.00376293508936971,0.00752587017873942,0.0564440263405456,2,0,4712000,"4712000",-90.1540962,35.880025
"158",6606000,"MANSFIELD SCHOOL DISTRICT","402 Grove St.
Mansfield
AR - 72944",158,"MANSFIELD SCHOOL DISTRICT",779,0.0783055198973042,0.152759948652118,0.0410783055198973,0.0205391527599487,0.711168164313222,0.862644415917843,0.0359435173299101,0.00770218228498074,0.0937098844672657,0.137355584082157,1,0,6606000,"6606000",-94.2478148,35.0620594
"159",1804000,"MARION SCHOOL DISTRICT","200 Manor Street
Marion
AR - 72364",159,"MARION SCHOOL DISTRICT",3849,0.0860634425377015,0.121164846593864,0.0234009360374415,0.0226209048361934,0.716549753182645,0.369446609508963,0.060275396206807,0.540400103923097,0.0298778903611328,0.630553390491037,2,0,1804000,"1804000",-90.2023782,35.2109435
"160",5604000,"MARKED TREE SCHOOL DISTRICT","406 St. Francis St.
Marked Tree
AR - 72365",160,"MARKED TREE SCHOOL DISTRICT",483,0.12448132780083,0.16804979253112,0.0394190871369295,0.004149377593361,0.807453416149068,0.648033126293996,0.0248447204968944,0.322981366459627,0.0041407867494824,0.351966873706004,2,0,5604000,"5604000",-90.4204228,35.5272134
"161",2803000,"MARMADUKE SCHOOL DISTRICT","1010 Greyhound Drive
Marmaduke
AR - 72443",161,"MARMADUKE SCHOOL DISTRICT",718,0.052924791086351,0.151810584958217,0.0584958217270195,0,0.64066852367688,0.956824512534819,0.0250696378830084,0.00278551532033426,0.0153203342618384,0.0431754874651811,2,0,2803000,"2803000",-90.3937388,36.1930301
"162",5404000,"MARVELL-ELAINE SCHOOL DISTRICT","203 South Pine St
Marvell
AR - 72366",162,"MARVELL-ELAINE SCHOOL DISTRICT",362,0.0939226519337017,0.149171270718232,0,0.00552486187845304,0.972375690607735,0.0966850828729282,0.0248618784530387,0.861878453038674,0.0165745856353591,0.903314917127072,5,0,5404000,"5404000",-90.912988,34.5547011
"163",2305000,"MAYFLOWER SCHOOL DISTRICT","#7 Ashmore Drive
Mayflower
AR - 72106",163,"MAYFLOWER SCHOOL DISTRICT",1048,0.0734732824427481,0.162213740458015,0.0429389312977099,0.00286259541984733,0.583969465648855,0.805343511450382,0.0419847328244275,0.112595419847328,0.0400763358778626,0.194656488549618,3,0,2305000,"2305000",NA,NA
"164",6102000,"MAYNARD SCHOOL DISTRICT","74 Campus Dr
Maynard
AR - 72444",164,"MAYNARD SCHOOL DISTRICT",475,0.103157894736842,0.183157894736842,0.0463157894736842,0,0.730932203389831,0.962105263157895,0.0231578947368421,0.00421052631578947,0.0105263157894737,0.0378947368421053,2,0,6102000,"6102000",-90.8991382,36.4179435
"165",7403000,"MCCRORY SCHOOL DISTRICT","509 North Jackson St
Mccrory
AR - 72101",165,"MCCRORY SCHOOL DISTRICT",633,0.110584518167457,0.131121642969984,0.0394944707740916,0.00315955766192733,0.598736176935229,0.846761453396525,0.0173775671406003,0.127962085308057,0.00789889415481832,0.153238546603475,2,0,7403000,"7403000",-91.1960345,35.2616755
"166",2105000,"MCGEHEE SCHOOL DISTRICT","409 Oak Street
Mcgehee
AR - 71654",166,"MCGEHEE SCHOOL DISTRICT",1168,0.0565552699228792,0.134532990574122,0.00428449014567267,0.0231362467866324,0.73972602739726,0.470034246575342,0.0428082191780822,0.453767123287671,0.0333904109589041,0.529965753424657,5,0,2105000,"2105000",-91.3993556,33.6279371
"167",3302000,"MELBOURNE SCHOOL DISTRICT","303 School Dr
Melbourne
AR - 72556",167,"MELBOURNE SCHOOL DISTRICT",849,0.116745283018868,0.132075471698113,0.00117924528301887,0.0141509433962264,0.505300353356891,0.959952885747939,0.0235571260306243,0.00471142520612485,0.0117785630153121,0.0400471142520612,2,0,3302000,"3302000",-91.9077748,36.0617911
"168",5703000,"MENA SCHOOL DISTRICT","501 Hickory St
Mena
AR - 71953",168,"MENA SCHOOL DISTRICT",1720,0.0924956369982548,0.121000581733566,0.0151250727166958,0.0238510762070972,0.675581395348837,0.896511627906977,0.0540697674418605,0.00930232558139535,0.0401162790697674,0.103488372093023,4,0,5703000,"5703000",-94.2394211,34.5874816
"169",3211000,"MIDLAND SCHOOL DISTRICT","741  Main Street
Pleasant Plains
AR - 72568",169,"MIDLAND SCHOOL DISTRICT",508,0.127952755905512,0.151574803149606,0.0708661417322835,0,0.726377952755906,0.931102362204724,0.031496062992126,0.015748031496063,0.0216535433070866,0.0688976377952756,2,0,3211000,"3211000",-91.6249662,35.5472344
"170",3104000,"MINERAL SPRINGS SCHOOL DISTRICT","2031 Main Street
Saratoga
AR - 71859",170,"MINERAL SPRINGS SCHOOL DISTRICT",398,0.0552763819095477,0.160804020100503,0.00251256281407035,0.0301507537688442,0.899497487437186,0.155778894472362,0.158291457286432,0.663316582914573,0.0226130653266332,0.844221105527638,4,0,3104000,"3104000",-93.902297,33.7517728
"171",2203000,"MONTICELLO SCHOOL DISTRICT","935 Scogin Dr.
Monticello
AR - 71655",171,"MONTICELLO SCHOOL DISTRICT",1893,0.0713153724247227,0.0903328050713154,0.00739566825145272,0.0121500264131009,0.49973586899102,0.561014263074485,0.0454305335446381,0.378763866877971,0.0147913365029054,0.438985736925515,5,0,2203000,"2203000",-91.813485,33.6075334
"172",4902000,"MOUNT IDA SCHOOL DISTRICT","P.O. Box 1230
Mount Ida
AR - 71957",172,"MOUNT IDA SCHOOL DISTRICT",455,0.149450549450549,0.164835164835165,0.0175824175824176,0.00659340659340659,0.714285714285714,0.927472527472528,0.0285714285714286,0.0021978021978022,0.0417582417582418,0.0725274725274725,4,0,4902000,"4902000",-93.6371745,34.5564919
"173",303000,"MOUNTAIN HOME SCHOOL DISTRICT","1230 S Maple
Mountain Home
AR - 72653",173,"MOUNTAIN HOME SCHOOL DISTRICT",3863,0.0567210567210567,0.104895104895105,0.013986013986014,0.00725200725200725,0.479679005953922,0.907067046337044,0.0463370437483821,0.00414185865907326,0.0424540512555009,0.0929329536629563,1,0,303000,"303000",-92.3803321,36.3260801
"174",2607000,"MOUNTAIN PINE SCHOOL DISTRICT","P.O. Box 1
Mountain Pine
AR - 71956",174,"MOUNTAIN PINE SCHOOL DISTRICT",571,0.0893169877408056,0.175131348511384,0.0245183887915937,0,0.831873905429072,0.823117338003503,0.0332749562171629,0.0700525394045534,0.0735551663747811,0.176882661996497,3,0,2607000,"2607000",-93.173716,34.5731972
"175",6901000,"MOUNTAIN VIEW SCHOOL DISTRICT","210 High School Dr
Mtn. View
AR - 72560",175,"MOUNTAIN VIEW SCHOOL DISTRICT",1614,0.0892193308550186,0.156133828996283,0,0.00309789343246592,0.66542750929368,0.954151177199504,0.0272614622057001,0.00371747211895911,0.0148698884758364,0.0458488228004957,2,0,6901000,"6901000",-92.0840612,35.8589751
"176",1703000,"MOUNTAINBURG SCHOOL DISTRICT","129 Hwy. 71 Sw
Mountainburg
AR - 72946",176,"MOUNTAINBURG SCHOOL DISTRICT",615,0.0960912052117264,0.184039087947883,0.0700325732899023,0,0.731707317073171,0.931707317073171,0.0178861788617886,0.0032520325203252,0.0471544715447154,0.0682926829268293,1,0,1703000,"1703000",-94.1717322,35.630561
"177",2306000,"MT. VERNON/ENOLA SCHOOL DISTRICT","33 Garland Springs Rd
Mt. Vernon
AR - 72111",177,"MT. VERNON/ENOLA SCHOOL DISTRICT",493,0.115618661257606,0.139959432048682,0.141987829614604,0,0.567951318458418,0.959432048681542,0.00202839756592292,0.0182555780933063,0.0202839756592292,0.0405679513184584,3,0,2306000,"2306000",-92.1301602,35.2256496
"178",1704000,"MULBERRY/PLEASANT VIEW BI-COUNTY SCHOOLS","203 West 5Th St
Mulberry
AR - 72947",178,"MULBERRY/PLEASANT VIEW BI-COUNTY SCHO",410,0.0731707317073171,0.18780487804878,0.0682926829268293,0.0170731707317073,0.748780487804878,0.941463414634146,0.0219512195121951,0,0.0365853658536585,0.0585365853658537,1,0,1704000,"1704000",-94.0555734,35.5004951
"179",3105000,"NASHVILLE SCHOOL DISTRICT","600 N. Fourth
Nashville
AR - 71852",179,"NASHVILLE SCHOOL DISTRICT",1921,0.0572618427902134,0.134825611660593,0.0239458615304529,0.152524726704841,0.725143154606976,0.530973451327434,0.234252993232691,0.218115564809995,0.0166579906298803,0.469026548672566,4,0,3105000,"3105000",-93.8499039,33.9502329
"180",1503000,"NEMO VISTA SCHOOL DISTRICT","5690 Hwy. 9
Center Ridge
AR - 72027",180,"NEMO VISTA SCHOOL DISTRICT",446,0.0852017937219731,0.192825112107623,0.0246636771300448,0.00224215246636771,0.645739910313901,0.912556053811659,0.0336322869955157,0.0112107623318386,0.0426008968609865,0.0874439461883408,1,0,1503000,"1503000",-92.5636807,35.3695591
"181",1611000,"NETTLETON SCHOOL DISTRICT","2616 Progress Drive
Jonesboro
AR - 72401",181,"NETTLETON SCHOOL DISTRICT",3426,0.0709281961471103,0.167834208990076,0.0385288966725044,0.0545826036193812,0.722416812609457,0.391418563922942,0.0907764156450671,0.46584938704028,0.0519556333917104,0.608581436077058,2,0,1611000,"1611000",-90.6500331,35.8127284
"182",5008000,"NEVADA SCHOOL DISTRICT","6580 U S Hwy 278
Rosston
AR - 71858",182,"NEVADA SCHOOL DISTRICT",400,0.13,0.1075,0.0675,0.015,0.765,0.5525,0.02,0.3725,0.055,0.4475,4,0,5008000,"5008000",-93.29544,33.591873
"183",3403000,"NEWPORT SCHOOL DISTRICT","406 Wilkerson Drive
Newport
AR - 72112",183,"NEWPORT SCHOOL DISTRICT",1126,0.105683836589698,0.213143872113677,0.113676731793961,0.0275310834813499,0.793072824156306,0.492007104795737,0.0896980461811723,0.380994671403197,0.0373001776198934,0.507992895204263,2,0,3403000,"3403000",-91.2719178,35.6006905
"184",304000,"NORFORK SCHOOL DISTRICT","44 Fireball Lane
Norfork,
AR - 72658",184,"NORFORK SCHOOL DISTRICT",426,0.10377358490566,0.153301886792453,0.113207547169811,0,0.769953051643193,0.964788732394366,0.0187793427230047,0,0.0164319248826291,0.0352112676056338,1,0,304000,"304000",-92.2658384,36.1974584
"185",6002000,"NORTH LITTLE ROCK SCHOOL DISTRICT","2700 Poplar Street
North Little Rock
AR - 72114",185,"NORTH LITTLE ROCK SCHOOL DISTRICT",8145,0.105883798059206,0.115587765630758,0.0487655079228596,0.0652254022847316,0.72768569674647,0.279435236341314,0.0941682013505218,0.598772252915899,0.0276243093922652,0.720564763658686,3,0,6002000,"6002000",-92.2647126,34.7795298
"186",504000,"OMAHA SCHOOL DISTRICT","522 W. College
Omaha
AR - 72662",186,"OMAHA SCHOOL DISTRICT",378,0.0714285714285714,0.14021164021164,0.113756613756614,0.0105820105820106,0.743386243386243,0.925925925925926,0.0317460317460317,0.0105820105820106,0.0317460317460317,0.0740740740740741,1,0,504000,"504000",-93.1961531,36.4483609
"187",4713000,"OSCEOLA SCHOOL DISTRICT","2750 W. Semmes
Osceola
AR - 72370",187,"OSCEOLA SCHOOL DISTRICT",1075,0.0920930232558139,0.116279069767442,0.0297674418604651,0.0111627906976744,0.903255813953488,0.118139534883721,0.0344186046511628,0.815813953488372,0.0316279069767442,0.881860465116279,2,0,4713000,"4713000",-90.0143802,35.7077832
"188",5706000,"OUACHITA RIVER SCHOOL DISTRICT","143 Polk 96
Mena
AR - 71953",188,"OUACHITA RIVER SCHOOL DISTRICT",746,0.134048257372654,0.124664879356568,0.0361930294906166,0.00670241286863271,0.707774798927614,0.89544235924933,0.0348525469168901,0.00536193029490617,0.064343163538874,0.10455764075067,4,0,5706000,"5706000",-94.2074429,34.6375197
"189",3005000,"OUACHITA SCHOOL DISTRICT","166 Schoolhouse Road
Donaldson
AR - 71941",189,"OUACHITA SCHOOL DISTRICT",488,0.190573770491803,0.125,0.0512295081967213,0.00409836065573771,0.459016393442623,0.950819672131147,0.0286885245901639,0.00204918032786885,0.0184426229508197,0.0491803278688525,3,0,3005000,"3005000",-92.963263,34.2394247
"190",6505000,"OZARK MOUNTAIN SCHOOL DISTRICT","250 South Hwy 65
St. Joe
AR - 72675",191,"OZARK MOUNTAIN SCHOOL DISTRICT",613,0.0831973898858075,0.166394779771615,0.0717781402936378,0.0032626427406199,0.748776508972268,0.960848287112561,0.0244698205546493,0,0.0146818923327896,0.0391517128874388,1,0,6505000,"6505000",-92.7985042,36.0281475
"191",2404000,"OZARK SCHOOL DISTRICT","P.O. Box 135
Ozark
AR - 72949",192,"OZARK SCHOOL DISTRICT",1789,0.0565826330532213,0.10812324929972,0.0168067226890756,0.0117647058823529,0.521812080536913,0.934041363890442,0.0285075461151481,0.00279485746226942,0.0346562325321409,0.0659586361095584,1,0,2404000,"2404000",-93.8636393,35.5037122
"192",6205000,"PALESTINE-WHEATLEY SCH. DIST.","7950 Hwy 70 W
Palestine
AR - 72372",193,"PALESTINE-WHEATLEY SCH. DIST.",810,0.137037037037037,0.1,0.0135802469135802,0,0.860493827160494,0.864197530864197,0.0172839506172839,0.109876543209877,0.00864197530864197,0.135802469135802,2,0,6205000,"6205000",-90.9026158,34.9723153
"193",7309000,"PANGBURN SCHOOL DISTRICT","1100 Short Street
Pangburn
AR - 72121",194,"PANGBURN SCHOOL DISTRICT",786,0.0979643765903308,0.0966921119592875,0.00381679389312977,0.00381679389312977,0.540712468193384,0.951653944020356,0.0330788804071247,0.00636132315521628,0.0089058524173028,0.0483460559796438,2,0,7309000,"7309000",-91.834424,35.4295621
"194",2808000,"PARAGOULD SCHOOL DISTRICT","631 West Court St
Paragould
AR - 72450",195,"PARAGOULD SCHOOL DISTRICT",3197,0.0866708385481852,0.153942428035044,0.0481852315394243,0.0585106382978723,0.700344072568033,0.819518298404754,0.0591179230528621,0.0672505473881764,0.0541132311542071,0.180481701595246,2,0,2808000,"2808000",-90.4942445,36.0563643
"195",4203000,"PARIS SCHOOL DISTRICT","602 N. Tenth St.
Paris
AR - 72855",196,"PARIS SCHOOL DISTRICT",1029,0.0796890184645287,0.113702623906706,0.137998056365403,0.0174927113702624,0.746355685131195,0.861030126336249,0.0291545189504373,0.0359572400388727,0.0738581146744412,0.138969873663751,1,0,4203000,"4203000",-93.7214617,35.2964828
"196",7007000,"PARKERS CHAPEL SCHOOL DIST.","401 Parkers Chapel R
El Dorado
AR - 71730",197,"PARKERS CHAPEL SCHOOL DIST.",777,0.101673101673102,0.110682110682111,0.0141570141570142,0.00772200772200772,0.387387387387387,0.817245817245817,0.0398970398970399,0.102960102960103,0.0398970398970399,0.182754182754183,4,0,7007000,"7007000",-92.7227279,33.1673564
"197",407000,"PEA RIDGE SCHOOL DISTRICT","781 W. Pickens Road
Pea Ridge
AR - 72751",198,"PEA RIDGE SCHOOL DISTRICT",2188,0.0722781335773102,0.126258005489478,0.0521500457456542,0.0256175663311985,0.381170018281536,0.879341864716636,0.079981718464351,0.00731261425959781,0.033363802559415,0.120658135283364,1,0,407000,"407000",-94.124292,36.4558337
"198",5303000,"PERRYVILLE SCHOOL DISTRICT","614 South Fourche Ave
Perryville
AR - 72126",199,"PERRYVILLE SCHOOL DISTRICT",907,0.0804851157662624,0.18412348401323,0.00441014332965821,0,0.611907386990077,0.934950385887541,0.0319735391400221,0.00551267916207277,0.0275633958103638,0.0650496141124587,1,0,5303000,"5303000",-92.7989839,35.000406
"199",1104000,"PIGGOTT SCHOOL DISTRICT","427 East Court
Piggott
AR - 72454",200,"PIGGOTT SCHOOL DISTRICT",845,0.0899408284023669,0.158579881656805,0.00118343195266272,0,0.598816568047337,0.958579881656805,0.0189349112426036,0.00710059171597633,0.0153846153846154,0.0414201183431953,2,0,1104000,"1104000",-90.1861593,36.380879
"200",3541700,"PINE BLUFF LIGHTHOUSE ACADEMY","708 W Second St
Pine Bluff
AR - 71601",201,"PINE BLUFF LIGHTHOUSE ACADEMY",273,0.043956043956044,0.0476190476190476,0.0695970695970696,0.00732600732600733,0.908424908424908,0.010989010989011,0.00732600732600733,0.963369963369963,0.0183150183150183,0.989010989010989,3,1,3541700,"3541700",-92.0095992,34.2284128
"201",3505000,"PINE BLUFF SCHOOL DISTRICT","512 South Pine St
Pine Bluff
AR - 71601",202,"PINE BLUFF SCHOOL DISTRICT",3189,0.116023831922233,0.14079648792725,0.0134838507369081,0.00689871433051113,0.844151771715271,0.0159924741298213,0.00940733772342427,0.964565694575102,0.0100344935716526,0.984007525870179,3,0,3505000,"3505000",-92.0047483,34.2241944
"202",6103000,"POCAHONTAS SCHOOL DISTRICT","2300 North Park
Pocahontas
AR - 72455",203,"POCAHONTAS SCHOOL DISTRICT",2065,0.0794188861985472,0.151573849878935,0.0261501210653753,0.0818401937046005,0.601452784503632,0.834382566585956,0.0397094430992736,0.00920096852300242,0.116707021791768,0.165617433414044,2,0,6103000,"6103000",-90.9844143,36.2801053
"203",5804000,"POTTSVILLE SCHOOL DISTRICT","7000 State Rd 247
Pottsville
AR - 72858",204,"POTTSVILLE SCHOOL DISTRICT",1714,0.106767794632439,0.155192532088681,0.0431738623103851,0.0373395565927655,0.40781796966161,0.893232205367561,0.0770128354725788,0.0122520420070012,0.0175029171528588,0.106767794632439,1,0,5804000,"5804000",-93.0676373,35.231056
"204",2703000,"POYEN SCHOOL DISTRICT","14296 Hwy 270W
Poyen
AR - 72128-209",205,"POYEN SCHOOL DISTRICT",594,0.126262626262626,0.176767676767677,0.0656565656565657,0,0.51010101010101,0.939393939393939,0.0336700336700337,0.00505050505050505,0.0218855218855219,0.0606060606060606,3,0,2703000,"2703000",-92.6439691,34.3245225
"205",7206000,"PRAIRIE GROVE SCHOOL DISTRICT","110 School Street
Prairie Grove
AR - 72753",206,"PRAIRIE GROVE SCHOOL DISTRICT",1996,0.0786573146292585,0.0971943887775551,0.0220440881763527,0.0240480961923848,0.419338677354709,0.876753507014028,0.0495991983967936,0.0225450901803607,0.0511022044088176,0.123246492985972,1,0,7206000,"7206000",-94.3181297,35.9838164
"206",5006000,"PRESCOTT SCHOOL DISTRICT","762 Martin Street
Prescott
AR - 71857",207,"PRESCOTT SCHOOL DISTRICT",976,0.112704918032787,0.108606557377049,0.00102459016393443,0.0399590163934426,0.761270491803279,0.529713114754098,0.0614754098360656,0.382172131147541,0.0266393442622951,0.470286885245902,4,0,5006000,"5006000",-93.376246,33.791506
"207",6003000,"PULASKI COUNTY SPECIAL SCHOOL DISTRICT","925 East Dixon Rd
Little Rock
AR - 72216-8601",208,"PULASKI COUNTY SPECIAL SCHOOL DISTRIC",11863,0.132326895504765,0.13451969300835,0.0343257147676478,0.0576874420173737,0.4960802495153,0.420382702520442,0.089606339037343,0.429655230548765,0.0603557278934502,0.579617297479558,3,0,6003000,"6003000",-92.2546445,34.6722142
"208",1203000,"QUITMAN SCHOOL DISTRICT","6275 Heber Springs Rd West
Quitman
AR - 72131",209,"QUITMAN SCHOOL DISTRICT",689,0.101596516690856,0.18577648766328,0.0740203193033382,0.00435413642960813,0.566037735849057,0.955007256894049,0.0217706821480406,0.00435413642960813,0.0188679245283019,0.0449927431059507,2,0,1203000,"1203000",-92.2221555,35.3789006
"209",1106000,"RECTOR SCHOOL DISTRICT","604 West 5Th St
Rector
AR - 72461",210,"RECTOR SCHOOL DISTRICT",558,0.0967741935483871,0.152329749103943,0.0340501792114695,0,0.706093189964158,0.96415770609319,0.0340501792114695,0,0.0017921146953405,0.03584229390681,2,0,1106000,"1106000",-90.3000557,36.2632607
"210",442700,"RESPONSIVE ED SOLUTIONS NORTHWEST ARK CLASSICAL ACADEMY","1300 Melissa Dr, Ste 216
Bentonville
AR - 72712",211,"RESPONSIVE ED SOLUTIONS NORTHWEST ARK",660,0,0.0560606060606061,0,0.0742424242424242,0.0515151515151515,0.592424242424242,0.1,0.0151515151515152,0.292424242424242,0.407575757575758,1,1,442700,"442700",-94.2268477,36.3616461
"211",6053700,"RESPONSIVE ED SOLUTIONS PREMIER HIGH SCHOOL OF LITTLE ROCK","400 Hardin Rd
Little Rock
AR - 72211",212,"RESPONSIVE ED SOLUTIONS PREMIER HIGH",116,0,0.120689655172414,0,0.0172413793103448,0.646551724137931,0.0603448275862069,0.0431034482758621,0.896551724137931,0,0.939655172413793,3,1,6053700,"6053700",-92.399029,34.7495974
"212",4706000,"RIVERCREST SCHOOL DISTRICT","1700-A West State Hwy 14
Wilson
AR - 72395",214,"RIVERCREST SCHOOL DISTRICT 57",1148,0.0905923344947735,0.127177700348432,0.0252613240418118,0.014808362369338,0.713414634146341,0.645470383275261,0.0714285714285714,0.261324041811847,0.0217770034843206,0.354529616724739,2,0,4706000,"4706000",-90.1055402,35.6113715
"213",1613000,"RIVERSIDE SCHOOL DISTRICT","601 Catfish Dr
Lake City
AR - 72437",215,"RIVERSIDE SCHOOL DISTRICT",762,0.0905511811023622,0.190288713910761,0.0433070866141732,0.00656167979002625,0.602362204724409,0.901574803149606,0.073490813648294,0.020997375328084,0.00393700787401575,0.0984251968503937,2,0,1613000,"1613000",-90.4379,35.8166998
"214",7307000,"RIVERVIEW SCHOOL DISTRICT","800 Raider Drive
Searcy
AR - 72143",216,"RIVERVIEW SCHOOL DISTRICT",1212,0.0651815181518152,0.113036303630363,0.0198019801980198,0.0693069306930693,0.72029702970297,0.693894389438944,0.152640264026403,0.0899339933993399,0.0635313531353135,0.306105610561056,2,0,7307000,"7307000",-91.691518,35.252528
"215",405000,"ROGERS SCHOOL DISTRICT","500 Walnut St
Rogers
AR - 72756",217,"ROGERS SCHOOL DISTRICT",15604,0.0801487560913055,0.122082585278276,0.00686073352141575,0.282123621441395,0.550820302486542,0.454114329659062,0.462381440656242,0.0167905665214048,0.0667136631632915,0.545885670340938,1,0,405000,"405000",-94.1217139,36.33303
"216",7310000,"ROSE BUD SCHOOL DISTRICT","124 School Road
Rose Bud
AR - 72137",218,"ROSE BUD SCHOOL DISTRICT",776,0.0992268041237113,0.153350515463918,0.00515463917525773,0.0335051546391753,0.612903225806452,0.939432989690722,0.0502577319587629,0.00128865979381443,0.00902061855670103,0.0605670103092784,2,0,7310000,"7310000",-92.0734054,35.3337851
"217",5805000,"RUSSELLVILLE SCHOOL DISTRICT","220 West 10 St
Russellville
AR - 72801",219,"RUSSELLVILLE SCHOOL DISTRICT",5186,0.108813297255508,0.129880170081175,0.0266718206416699,0.146501739466564,0.577323563440031,0.62263787119167,0.247011183956807,0.0688391824141921,0.0615117624373313,0.37736212880833,1,0,5805000,"5805000",-93.1360538,35.269993
"218",2502000,"SALEM SCHOOL DISTRICT","313 Hwy 62E
Salem
AR - 72576",220,"SALEM SCHOOL DISTRICT",854,0.0491803278688525,0.133489461358314,0.0456674473067916,0.00819672131147541,0.635831381733021,0.921545667447307,0.0292740046838408,0.00351288056206089,0.0456674473067916,0.0784543325526932,2,0,2502000,"2502000",-91.8166092,36.3593264
"219",6060700,"SCHOLARMADE ACHIEVEMENT PLACE OF ARKANSAS","2410 South Battery St
Little Rock
AR - 72204",221,"SCHOLARMADE ACHIEVEMENT PLACE",275,0,0.0836363636363636,0,0,0.930909090909091,0.0218181818181818,0.0254545454545455,0.927272727272727,0.0254545454545455,0.978181818181818,3,1,6060700,"6060700",-92.2948418,34.7258777
"220",4204000,"SCRANTON SCHOOL DISTRICT","103 N. Tenth St.
Scranton
AR - 72863",222,"SCRANTON SCHOOL DISTRICT",424,0.120283018867925,0.125,0.0306603773584906,0.0212264150943396,0.561320754716981,0.900943396226415,0.035377358490566,0.00235849056603774,0.0613207547169811,0.0990566037735849,1,0,4204000,"4204000",-93.5411861,35.3613376
"221",6502000,"SEARCY COUNTY SCHOOL DISTRICT","952 Hwy 65 North
Marshall
AR - 72650",223,"SEARCY COUNTY SCHOOL DISTRICT",808,0.0717821782178218,0.118811881188119,0.0309405940594059,0.00495049504950495,0.71039603960396,0.935643564356436,0.0383663366336634,0.00123762376237624,0.0247524752475248,0.0643564356435644,1,0,6502000,"6502000",-92.4517791,35.581979
"222",7311000,"SEARCY SCHOOL DISTRICT","801 North Elm
Searcy
AR - 72143",224,"SEARCY SCHOOL DISTRICT",4054,0.0781943759250123,0.13764183522447,0.019980266403552,0.0325604341391219,0.494573260976813,0.719782930439072,0.0929945732609768,0.109521460286137,0.0777010360138135,0.280217069560927,2,0,7311000,"7311000",-91.7430069,35.2546208
"223",2705000,"SHERIDAN SCHOOL DISTRICT","400 North Rock
Sheridan
AR - 72150",225,"SHERIDAN SCHOOL DISTRICT",4091,0.0415546321192862,0.110486433634808,0.000733317037399169,0.0300659985333659,0.460278660474212,0.896113419701784,0.0493766805182107,0.0195551209973112,0.0349547787826937,0.103886580298216,3,0,2705000,"2705000",-92.3985097,34.3099341
"224",7104000,"SHIRLEY SCHOOL DISTRICT","154 School Drive
Shirley
AR - 72153",226,"SHIRLEY SCHOOL DISTRICT",354,0.0875706214689266,0.172316384180791,0.00564971751412429,0,0.827683615819209,0.957627118644068,0.0112994350282486,0.0112994350282486,0.019774011299435,0.0423728813559322,1,0,7104000,"7104000",-92.3140974,35.6596458
"225",406000,"SILOAM SPRINGS SCHOOL DISTRICT","847 South Dogwood
Siloam Springs
AR - 72761",228,"SILOAM SPRINGS SCHOOL DISTRICT",4274,0.0629386991109031,0.131492746841366,0.0219934487599438,0.173139915769771,0.540009358914366,0.558727187646233,0.296677585400094,0.0112306972391203,0.133364529714553,0.441272812353767,1,0,406000,"406000",-94.5548269,36.1772388
"226",3806000,"SLOAN-HENDRIX SCHOOL DISTRICT","#1 Greyhound Cir
Imboden
AR - 72434",229,"SLOAN-HENDRIX SCHOOL DISTRICT",712,0.0884831460674157,0.126404494382022,0.0786516853932584,0.00140449438202247,0.700842696629214,0.956460674157303,0.0182584269662921,0.00421348314606742,0.0210674157303371,0.0435393258426966,2,0,3806000,"3806000",NA,NA
"227",7008000,"SMACKOVER-NORPHLET SCHOOL DISTRICT","Po Box 109
Smackover
AR - 71762",230,"SMACKOVER-NORPHLET SCHOOL DISTRICT",1108,0.0965703971119134,0.0956678700361011,0.00631768953068592,0.0189530685920578,0.504512635379061,0.770758122743682,0.0342960288808664,0.172382671480144,0.0225631768953069,0.229241877256318,4,0,7008000,"7008000",-92.7248822,33.3648455
"228",1507000,"SOUTH CONWAY COUNTY SCHOOL DISTRICT","704 E Church Steet
Morrilton
AR - 72110",231,"SOUTH CONWAY COUNTY SCHOOL DISTRICT",2254,0.0692102928127773,0.137089618456078,0.0891748003549246,0.0319432120674357,0.739130434782609,0.698314108251996,0.0749778172138421,0.161047027506655,0.0656610470275066,0.301685891748004,1,0,1507000,"1507000",-92.7378446,35.1498482
"229",5504000,"SOUTH PIKE COUNTY SCHOOL DISTRICT","605 Third Ave
Murfreesboro
AR - 71958",232,"SOUTH PIKE COUNTY SCHOOL DISTRICT",676,0.0976331360946746,0.180473372781065,0.0931952662721894,0.0133136094674556,0.705621301775148,0.841715976331361,0.0517751479289941,0.0695266272189349,0.0369822485207101,0.158284023668639,4,0,5504000,"5504000",-93.687349,34.0576978
"230",7105000,"SOUTH SIDE SCHOOL DISTRICT(VANBUREN)","334 Southside Road
Bee Branch
AR - 72013",233,"SOUTH SIDE SCHOOL DISTRICT(VANBUREN)",527,0.140417457305503,0.189753320683112,0.0303605313092979,0,0.586337760910816,0.925996204933586,0.0227703984819734,0.00569259962049336,0.0455407969639469,0.0740037950664137,1,0,7105000,"7105000",-92.3875303,35.4295294
"231",3543700,"SOUTHEAST ARKANSAS PREPARATORY HIGH SCHOOL","1501 West 73Rd Ave
Pine Bluff
AR - 71603",234,"SOUTHEAST ARKANSAS PREPARATORY HIGH S",83,0,0,0,0,0.698795180722892,0.0481927710843374,0,0.927710843373494,0.0240963855421687,0.951807228915663,3,1,3543700,"3543700",-92.0169109,34.152859
"232",3209000,"SOUTHSIDE SCHOOL DISTRICT (INDEPENDENCE)","70 Scott Drive
Batesville
AR - 72501",235,"SOUTHSIDE SCHOOL DISTRICT (INDEPENDEN",1979,0.0460060667340748,0.166329625884732,0.0283114256825076,0.0212335692618807,0.6088933804952,0.902475997978777,0.0611419909044972,0.0131379484588176,0.023244062657908,0.0975240020212228,2,0,3209000,"3209000",-91.6276485,35.6998493
"233",2906000,"SPRING HILL SCHOOL DISTRICT","633 Hwy 355 W
Hope
AR - 71801",236,"SPRING HILL SCHOOL DISTRICT",611,0.126022913256956,0.0851063829787234,0.0016366612111293,0.0261865793780687,0.479541734860884,0.854337152209493,0.0474631751227496,0.00818330605564648,0.0900163666121113,0.145662847790507,4,0,2906000,"2906000",-93.6529751,33.583886
"234",7207000,"SPRINGDALE SCHOOL DISTRICT","804 W Johnson Ave
Springdale
AR - 72765-8",237,"SPRINGDALE SCHOOL DISTRICT",21962,0.104778825566033,0.103731037310373,0.0102956585121407,0.375427087604209,0.704944904835625,0.33603496949276,0.475047809853383,0.0238138603041617,0.165103360349695,0.66396503050724,1,0,7207000,"7207000",-94.1376624,36.1871817
"235",4003000,"STAR CITY SCHOOL DISTRICT","206 Cleveland Street
Star City
AR - 71667",238,"STAR CITY SCHOOL DISTRICT",1488,0.0685483870967742,0.103494623655914,0.00739247311827957,0.0463709677419355,0.635752688172043,0.698252688172043,0.0813172043010753,0.184811827956989,0.0356182795698925,0.301747311827957,5,0,4003000,"4003000",-91.8414552,33.9407377
"236",7009000,"STRONG-HUTTIG SCHOOL DISTRICT","736 South Concord
Strong
AR - 71765",239,"STRONG-HUTTIG SCHOOL DISTRICT",286,0.13986013986014,0.143356643356643,0,0,0.940559440559441,0.227272727272727,0.041958041958042,0.727272727272727,0.0034965034965035,0.772727272727273,4,0,7009000,"7009000",-92.3568826,33.1055187
"237",104000,"STUTTGART SCHOOL DISTRICT","2501 S Main
Stuttgart
AR - 72160",240,"STUTTGART SCHOOL DISTRICT",1553,0.1248382923674,0.147477360931436,0.0271668822768435,0.0446313065976714,0.639407598197038,0.431423052157115,0.068254990341275,0.448164842240824,0.0521571152607856,0.568576947842885,5,0,104000,"104000",-91.5522678,34.4764561
"238",4605000,"TEXARKANA SCHOOL DISTRICT","3512 Grand Ave.
Texarkana
AR - 71854",241,"TEXARKANA SCHOOL DISTRICT",4044,0.0783877349159248,0.111028684470821,0.00816023738872404,0.0148367952522255,0.712413452027695,0.364985163204748,0.0514342235410485,0.533630069238378,0.0499505440158259,0.635014836795252,4,0,4605000,"4605000",-94.0322286,33.4571904
"239",6058700,"THE EXCEL CENTER","7400 Scott Hamilton
Little Rock
AR - 72209",242,"THE EXCEL CENTER",102,NA,NA,NA,NA,0,0.107843137254902,0.0784313725490196,0.803921568627451,0.00980392156862745,0.892156862745098,3,1,6058700,"6058700",-92.3230866,34.6819198
"240",5605000,"TRUMANN SCHOOL DISTRICT","221 Pine Avenue
Trumann
AR - 72472",243,"TRUMANN SCHOOL DISTRICT",1491,0.0864864864864865,0.172297297297297,0.0804054054054054,0.0222972972972973,0.740442655935614,0.757880617035547,0.0724346076458753,0.128772635814889,0.0409121395036888,0.242119382964453,2,0,5605000,"5605000",-90.5178817,35.6734382
"241",7510000,"TWO RIVERS SCHOOL DISTRICT","17727 East State Hwy 28
Ola
AR - 72853",244,"TWO RIVERS SCHOOL DISTRICT",859,0.142025611175786,0.187427240977881,0.0838183934807916,0.0628637951105937,0.810244470314319,0.823050058207218,0.132712456344587,0.010477299185099,0.0337601862630966,0.176949941792782,1,0,7510000,"7510000",-93.272946,35.0108998
"242",505000,"VALLEY SPRINGS SCHOOL DISTRICT","7349 School St
Valley Springs
AR - 72682",245,"VALLEY SPRINGS SCHOOL DISTRICT",841,0.0880952380952381,0.104761904761905,0.00476190476190476,0.00714285714285714,0.428061831153389,0.953626634958383,0.0202140309155767,0.00475624256837099,0.0214030915576694,0.0463733650416171,1,0,505000,"505000",-92.9935783,36.157745
"243",1612000,"VALLEY VIEW SCHOOL DISTRICT","2131 Valley View Dr
Jonesboro
AR - 72404",246,"VALLEY VIEW SCHOOL DISTRICT",2783,0.0589503953989935,0.12508986340762,0.01294033069734,0.0190510424155284,0.245059288537549,0.877470355731225,0.0431189363995688,0.0384477182896155,0.0409629895795904,0.122529644268775,2,0,1612000,"1612000",-90.7420877,35.776998
"244",1705000,"VAN BUREN SCHOOL DISTRICT","2221 Pointer Trail
Van Buren
AR - 72956-2336",247,"VAN BUREN SCHOOL DISTRICT",5732,0.0738091083580527,0.129645786075728,0.00610713662537079,0.0987611237131391,0.594207955338451,0.691032798325192,0.178820655966504,0.0268667131891137,0.103279832519191,0.308967201674808,1,0,1705000,"1705000",-94.3350474,35.4589313
"245",2307000,"VILONIA SCHOOL DISTRICT","1164B Maint St
Vilonia
AR - 72173",248,"VILONIA SCHOOL DISTRICT",3050,0.0734426229508197,0.158360655737705,0.0829508196721312,0.019672131147541,0.418032786885246,0.924262295081967,0.0468852459016393,0.019016393442623,0.00983606557377049,0.0757377049180328,3,0,2307000,"2307000",-92.1967215,35.0842742
"246",2503000,"VIOLA SCHOOL DISTRICT","315 Longhorn Dr
Viola
AR - 72583",249,"VIOLA SCHOOL DISTRICT",376,0.11968085106383,0.162234042553191,0.0132978723404255,0,0.678191489361702,0.970744680851064,0.0132978723404255,0.00265957446808511,0.0132978723404255,0.0292553191489362,2,0,2503000,"2503000",-91.9856019,36.3959813
"247",6401000,"WALDRON SCHOOL DISTRICT","1560 W. Sixth St.
Waldron
AR - 72958",250,"WALDRON SCHOOL DISTRICT",1435,0.0696864111498258,0.133797909407666,0.0299651567944251,0.0857142857142857,0.750522648083624,0.741463414634146,0.167247386759582,0.00696864111498258,0.0843205574912892,0.258536585365854,1,0,6401000,"6401000",-94.1083893,34.8973739
"248",602000,"WARREN SCHOOL DISTRICT","408 Cherry St
Warren
AR - 71671",251,"WARREN SCHOOL DISTRICT",1569,0.137029955385596,0.117272147864882,0.00382409177820268,0.0936902485659656,0.722115997450606,0.394518801784576,0.245379222434672,0.337794773741236,0.0223072020395156,0.605481198215424,5,0,602000,"602000",-92.0684347,33.6184531
"249",3509000,"WATSON CHAPEL SCHOOL DISTRICT","4100 Camden Road
Pine Bluff
AR - 71603",252,"WATSON CHAPEL SCHOOL DISTRICT",2472,0.0696074463779846,0.0857952246054229,0.0109267503035208,0.0117361392148928,0.786812297734628,0.147249190938511,0.0194174757281553,0.816747572815534,0.0165857605177994,0.852750809061489,3,0,3509000,"3509000",-92.0684279,34.1876332
"250",7208000,"WEST FORK SCHOOL DISTRICT","359 School Ave.
West Fork
AR - 72774",253,"WEST FORK SCHOOL DISTRICT",961,0.103017689906348,0.169614984391259,0.0270551508844953,0.0124869927159209,0.533818938605619,0.860561914672216,0.0582726326742976,0.00624349635796046,0.0749219562955255,0.139438085327784,1,0,7208000,"7208000",-94.1931232,35.9248916
"251",1803000,"WEST MEMPHIS SCHOOL DISTRICT","Post Office Box 826
West Memphis
AR - 72303",254,"WEST MEMPHIS SCHOOL DISTRICT",5285,0.0486558121923514,0.119083680424082,0.0126845891707686,0.00265051117001136,0.726206244087039,0.213434247871334,0.0177861873226112,0.75685903500473,0.0119205298013245,0.786565752128666,2,0,1803000,"1803000",-90.1769313,35.1508874
"252",1204000,"WEST SIDE SCHOOL DIST(CLEBURNE)","7295 Greers Ferry Rd
Greers Ferry
AR - 72067",255,"WEST SIDE SCHOOL DIST(CLEBURNE)",460,0.11304347826087,0.193478260869565,0.18695652173913,0,0.717391304347826,0.980434782608696,0.0130434782608696,0.00434782608695652,0.00217391304347826,0.0195652173913043,2,0,1204000,"1204000",-92.1663,35.5810587
"253",7509000,"WESTERN YELL CO. SCHOOL DIST.","#1 Wolverine Dr
Havana
AR - 72842",256,"WESTERN YELL CO. SCHOOL DIST.",342,0.0584795321637427,0.178362573099415,0.0350877192982456,0.184210526315789,0.874269005847953,0.719298245614035,0.192982456140351,0.0116959064327485,0.0760233918128655,0.280701754385965,1,0,7509000,"7509000",NA,NA
"254",1602000,"WESTSIDE CONS. SCH DIST(CRAIGH","1630 Hwy 91 W
Jonesboro
AR - 72404",257,"WESTSIDE CONS. SCH DIST(CRAIGH",1732,0.0531791907514451,0.157225433526012,0.0069364161849711,0.00520231213872832,0.527713625866051,0.928406466512702,0.0392609699769053,0.0144341801385681,0.0178983833718245,0.0715935334872979,2,0,1602000,"1602000",-90.8050027,35.8559823
"255",3606000,"WESTSIDE SCHOOL DIST(JOHNSON)","122 Thompson St
Hartman
AR - 72840",258,"WESTSIDE SCHOOL DIST(JOHNSON)",634,0.0616113744075829,0.184834123222749,0.018957345971564,0.0110584518167457,0.755520504731861,0.935331230283912,0.0315457413249211,0.00315457413249211,0.0299684542586751,0.0646687697160883,1,0,3606000,"3606000",-93.618446,35.433062
"256",7304000,"WHITE CO. CENTRAL SCHOOL DIST.","3259 Highway 157
Judsonia
AR - 72081",259,"WHITE CO. CENTRAL SCHOOL DIST.",754,0.096816976127321,0.149867374005305,0.0729442970822281,0.0862068965517241,0.664456233421751,0.840848806366048,0.129973474801061,0.0013262599469496,0.0278514588859416,0.159151193633952,2,0,7304000,"7304000",-91.6769171,35.3575912
"257",3510000,"WHITE HALL SCHOOL DISTRICT","1020 W. Holland Ave.
White Hall
AR - 71602",260,"WHITE HALL SCHOOL DISTRICT",2971,0.0663076405250757,0.116122517670818,0,0.0188488724335241,0.469202288791653,0.687647256815887,0.0299562436889936,0.222484012117132,0.0599124873779872,0.312352743184113,3,0,3510000,"3510000",NA,NA
"258",1505000,"WONDERVIEW SCHOOL DISTRICT","2436 Hwy 95
Hattieville
AR - 72063",261,"WONDERVIEW SCHOOL DISTRICT",460,0.176086956521739,0.180434782608696,0.0739130434782609,0,0.606521739130435,0.93695652173913,0.00869565217391304,0.0326086956521739,0.0217391304347826,0.0630434782608696,1,0,1505000,"1505000",-92.7306785,35.3272171
"259",1304000,"WOODLAWN SCHOOL DISTRICT","6760 Hwy 63
Rison
AR - 71665",262,"WOODLAWN SCHOOL DISTRICT",559,0.0840787119856887,0.148479427549195,0.0035778175313059,0.0161001788908766,0.429338103756708,0.926654740608229,0.0339892665474061,0.0035778175313059,0.035778175313059,0.073345259391771,5,0,1304000,"1304000",-92.0408499,33.9677884
"260",1905000,"WYNNE SCHOOL DISTRICT","800 East Jackson
Wynne
AR - 72396",263,"WYNNE SCHOOL DISTRICT",2605,0.0456813819577735,0.139347408829175,0.00882917466410749,0.00690978886756238,0.574664107485605,0.65489443378119,0.0268714011516315,0.296353166986564,0.0218809980806142,0.34510556621881,2,0,1905000,"1905000",-90.7831195,35.2296479
"261",4502000,"YELLVILLE-SUMMIT SCHOOL DISTRICT.","1124 N Panther Ave.
Yellville
AR - 72687",264,"YELLVILLE-SUMMIT SCHOOL DISTRICT.",788,0.049492385786802,0.154822335025381,0.0545685279187817,0,0.751269035532995,0.953045685279188,0.0152284263959391,0.00888324873096447,0.0228426395939086,0.0469543147208122,1,0,4502000,"4502000",-92.689327,36.2392044
